{
  "type": "FeatureCollection",
  "generator": "overpass-ide",
  "copyright": "The data included in this document is from www.openstreetmap.org. The data is made available under ODbL.",
  "timestamp": "2021-12-04T23:39:26Z",
  "features": [
    {
      "type": "Feature",
      "properties": {
        "@id": "node/21068295",
        "admin_level": "2",
        "capital": "yes",
        "ele": "655",
        "is_capital": "country",
        "name": "Madrid",
        "name:ab": "Мaдрид",
        "name:am": "ማድሪድ",
        "name:an": "Madrit",
        "name:ar": "مدريد",
        "name:arc": "ܡܕܪܝܕ",
        "name:arz": "مدريد",
        "name:ba": "Мадрид",
        "name:bat-smg": "Madrids",
        "name:be": "Мадрыд",
        "name:be-tarask": "Мадрыд",
        "name:bg": "Мадрид",
        "name:bn": "মাদ্রিদ",
        "name:bo": "མ་ད་རིད།",
        "name:ca": "Madrid",
        "name:ckb": "مادرید",
        "name:co": "Madridi",
        "name:cv": "Мадрид",
        "name:de": "Madrid",
        "name:el": "Μαδρίτη",
        "name:en": "Madrid",
        "name:eo": "Madrido",
        "name:es": "Madrid",
        "name:eu": "Madril",
        "name:ext": "Mairil",
        "name:fa": "مادرید",
        "name:fr": "Madrid",
        "name:ga": "Maidrid",
        "name:haw": "Makelika",
        "name:he": "מדריד",
        "name:hi": "मद्रिद",
        "name:hu": "Madrid",
        "name:hy": "Մադրիդ",
        "name:is": "Madrid",
        "name:it": "Madrid",
        "name:ja": "マドリード",
        "name:ka": "მადრიდი",
        "name:kbd": "Мадрид",
        "name:kk": "Мадрид",
        "name:kn": "ಮಾದ್ರಿದ್",
        "name:ko": "마드리드",
        "name:koi": "Мадрид",
        "name:ku": "Madrîd",
        "name:kv": "Мадрид",
        "name:ky": "Мадрид",
        "name:la": "Matritum",
        "name:lez": "Мадрид",
        "name:lt": "Madridas",
        "name:lv": "Madride",
        "name:mhr": "Мадрид",
        "name:mk": "Мадрид",
        "name:ml": "മാഡ്രിഡ്",
        "name:mn": "Мадрид",
        "name:mr": "माद्रिद",
        "name:mrj": "Мадрид",
        "name:myv": "Мадрид ош",
        "name:mzn": "مادرید",
        "name:nds-nl": "Medrid",
        "name:no": "Madrid",
        "name:oc": "Madrid",
        "name:os": "Мадрид",
        "name:pl": "Madryt",
        "name:pnb": "میڈرڈ",
        "name:ru": "Мадрид",
        "name:rue": "Мадрід",
        "name:sa": "मद्रिद्",
        "name:sah": "Мадрид",
        "name:sk": "Madrid",
        "name:sl": "Madrid",
        "name:sq": "Madridi",
        "name:sr": "Мадрид",
        "name:sv": "Madrid",
        "name:szl": "Madryt",
        "name:ta": "மத்ரித்",
        "name:tet": "Madríd",
        "name:tg": "Мадрид",
        "name:th": "มาดริด",
        "name:udm": "Мадрид",
        "name:uk": "Мадрид",
        "name:ur": "میدرد",
        "name:xmf": "მადრიდი",
        "name:yi": "מאדריד",
        "name:yue": "馬德里",
        "name:zh": "馬德里",
        "name:zh-Hans": "马德里",
        "name:zh_pinyin": "Mǎdélǐ",
        "old_name:ar": "مجريط",
        "place": "city",
        "population": "3334730",
        "population:date": "2020",
        "postal_code": "28080",
        "rank": "10",
        "ref:ine": "28079000100",
        "source": "Instituto Geográfico Nacional",
        "source:date": "2011-06",
        "source:ele": "MDT5",
        "source:file": "http://centrodedescargas.cnig.es/CentroDescargas/equipamiento/BD_Municipios-Entidades.zip",
        "source:name": "Nomenclátor Geográfico de Municipios y Entidades de Población",
        "source:name:oc": "Lo Congrès",
        "source:population": "BOE REAL DECRETO 1683/2007, de 14 de diciembre",
        "wikidata": "Q2807",
        "wikipedia": "es:Madrid"
      },
      "geometry": {
        "type": "Point",
        "coordinates": [
          -3.7035825,
          40.4167047
        ]
      },
      "id": "node/21068295"
    },
    {
      "type": "Feature",
      "properties": {
        "@id": "node/21323935",
        "admin_level": "6",
        "alt_name:gl": "Alacante",
        "capital": "6",
        "ele": "5",
        "name": "Alacant / Alicante",
        "name:ar": "أليكانتي",
        "name:be": "Алікантэ",
        "name:ca": "Alacant",
        "name:cs": "Alicante",
        "name:de": "Alicante",
        "name:el": "Αλικάντε",
        "name:en": "Alicante",
        "name:es": "Alicante",
        "name:et": "Alicante",
        "name:eu": "Alacant",
        "name:fi": "Alicante",
        "name:fr": "Alicante",
        "name:gl": "Alacant",
        "name:hu": "Alicante",
        "name:it": "Alicante",
        "name:nl": "Alicante",
        "name:ro": "Alicante",
        "name:ru": "Аликанте",
        "name:sk": "Alicante",
        "name:sr": "Аликанте",
        "name:zh-Hans": "阿利坎特",
        "name:zh-Hant": "阿利坎特",
        "official_name": "Alacant / Alicante",
        "official_name:ca": "Alacant",
        "official_name:es": "Alicante",
        "place": "city",
        "population": "329988",
        "population:date": "2017",
        "ref:ine": "03014000200",
        "source": "Instituto Geográfico Nacional",
        "source:date": "2011-06",
        "source:ele": "MDT5",
        "source:file": "http://centrodedescargas.cnig.es/CentroDescargas/equipamiento/BD_Municipios-Entidades.zip",
        "source:name": "Nomenclátor Geográfico de Municipios y Entidades de Población",
        "source:population": "http://ine.es/jaxiT3/Datos.htm?t=2856",
        "wikidata": "Q11959",
        "wikipedia": "ca:Alacant"
      },
      "geometry": {
        "type": "Point",
        "coordinates": [
          -0.4881708,
          38.3436365
        ]
      },
      "id": "node/21323935"
    },
    {
      "type": "Feature",
      "properties": {
        "@id": "node/21750062",
        "admin_level": "8",
        "capital": "6",
        "ele": "106",
        "heritage": "1",
        "heritage:operator": "whc",
        "name": "Córdoba",
        "name:ar": "قرطبة",
        "name:be": "Кордава",
        "name:bg": "Кордоба",
        "name:ca": "Còrdova",
        "name:da": "Cordoba",
        "name:el": "Κόρδοβα",
        "name:es": "Córdoba",
        "name:eu": "Kordoba",
        "name:ext": "Córduba",
        "name:fr": "Cordoue",
        "name:he": "קורדובה",
        "name:hu": "Córdoba",
        "name:id": "Kordoba",
        "name:it": "Cordova",
        "name:ja": "コルドバ",
        "name:kn": "ಕೋರ್ಡೊಬ",
        "name:lt": "Kordoba",
        "name:pl": "Kordoba",
        "name:pt": "Córdova",
        "name:ru": "Кордова",
        "name:sr": "Кордоба",
        "name:uk": "Кордова",
        "place": "city",
        "population": "328428",
        "ref:ine": "14021000900",
        "ref:whc": "313",
        "source": "Instituto Geográfico Nacional",
        "source:date": "2011-06",
        "source:ele": "MDT5",
        "source:file": "http://centrodedescargas.cnig.es/CentroDescargas/equipamiento/BD_Municipios-Entidades.zip",
        "source:name": "Nomenclátor Geográfico de Municipios y Entidades de Población",
        "source:population": "INE",
        "whc:criteria": "(i)(ii)(iii)(iv)",
        "whc:inscription_date": "1984",
        "wikidata": "Q5818",
        "wikipedia": "es:Córdoba (España)"
      },
      "geometry": {
        "type": "Point",
        "coordinates": [
          -4.7760138,
          37.8845813
        ]
      },
      "id": "node/21750062"
    },
    {
      "type": "Feature",
      "properties": {
        "@id": "node/21750065",
        "admin_level": "8",
        "alt_name:tr": "Malaga",
        "capital": "6",
        "ele": "8",
        "name": "Málaga",
        "name:ar": "مالقة",
        "name:be": "Малага",
        "name:ca": "Màlaga",
        "name:de": "Malaga",
        "name:el": "Μάλαγα",
        "name:es": "Málaga",
        "name:fr": "Malaga",
        "name:hu": "Málaga",
        "name:kn": "ಮಾಲಗ",
        "name:lt": "Malaga",
        "name:lv": "Malaga",
        "name:pl": "Malaga",
        "name:ru": "Малага",
        "name:sr": "Малага",
        "name:tr": "Mâleka",
        "name:zh": "马拉加",
        "name:zh-Hans": "马拉加",
        "name:zh-Hant": "馬拉加",
        "place": "city",
        "population": "568305",
        "ref:ine": "29067000500",
        "source": "Instituto Geográfico Nacional",
        "source:date": "2011-06",
        "source:ele": "MDT5",
        "source:file": "http://centrodedescargas.cnig.es/CentroDescargas/equipamiento/BD_Municipios-Entidades.zip",
        "source:name": "Nomenclátor Geográfico de Municipios y Entidades de Población",
        "source:population": "INE",
        "wikidata": "Q8851",
        "wikipedia": "es:Málaga"
      },
      "geometry": {
        "type": "Point",
        "coordinates": [
          -4.4216366,
          36.7213028
        ]
      },
      "id": "node/21750065"
    },
    {
      "type": "Feature",
      "properties": {
        "@id": "node/26562214",
        "admin_level": "8",
        "capital": "4",
        "ele": "8",
        "name": "Santander",
        "name:ar": "سانتاندير",
        "name:be": "Сантандэр",
        "name:bg": "Сантандер",
        "name:ca": "Santander",
        "name:el": "Σανταντέρ",
        "name:en": "Santander",
        "name:eo": "Santandero",
        "name:es": "Santander",
        "name:fa": "سانتاندر",
        "name:fr": "Santander",
        "name:he": "סנטנדר",
        "name:hu": "Santander",
        "name:ja": "サンタンデール",
        "name:lt": "Santanderas",
        "name:os": "Сантандер",
        "name:ru": "Сантандер",
        "name:zh": "桑坦德",
        "place": "city",
        "population": "175736",
        "population:date": "2014",
        "postal_code": "39000-39012",
        "ref:ine": "39075000500",
        "source": "Instituto Geográfico Nacional",
        "source:ele": "MDT5",
        "source:file": "http://centrodedescargas.cnig.es/CentroDescargas/equipamiento/BD_Municipios-Entidades.zip",
        "source:name": "Nomenclátor Geográfico de Municipios y Entidades de Población",
        "wikidata": "Q12233",
        "wikipedia": "es:Santander (España)"
      },
      "geometry": {
        "type": "Point",
        "coordinates": [
          -3.8099719,
          43.4620412
        ]
      },
      "id": "node/26562214"
    },
    {
      "type": "Feature",
      "properties": {
        "@id": "node/27000762",
        "addr:country": "ES",
        "addr:postcode": "48001;48002;48003;48004;48005;48006;48007;48008;48009;48010;48011;48012;48013;48014;48015",
        "admin_level": "8",
        "capital": "7",
        "idee:name": "Bilbao",
        "ine:municipio": "48020",
        "name": "Bilbao",
        "name:an": "Bilbau",
        "name:ar": "بلباو",
        "name:be": "Більбаа",
        "name:bg": "Билбао",
        "name:br": "Bilbo",
        "name:ca": "Bilbao",
        "name:ce": "Билбао",
        "name:ckb": "بیلباو",
        "name:cy": "Bilbo",
        "name:el": "Μπιλμπάο",
        "name:es": "Bilbao",
        "name:eu": "Bilbo",
        "name:ext": "Bilbau",
        "name:fa": "بیلبائو",
        "name:fr": "Bilbao",
        "name:he": "בילבאו",
        "name:hu": "Bilbao",
        "name:hy": "Բիլբաո",
        "name:ja": "ビルバオ",
        "name:ka": "ბილბაო",
        "name:kk": "Бильбао",
        "name:ko": "빌바오",
        "name:la": "Bilbaum",
        "name:lt": "Bilbao",
        "name:mhr": "Бильбао",
        "name:mn": "Бильбао",
        "name:mr": "बिल्बाओ",
        "name:os": "Бильбао",
        "name:pms": "Bilbo",
        "name:pt": "Bilbau",
        "name:ru": "Бильбао",
        "name:sr": "Билбао",
        "name:th": "บิลบาโอ",
        "name:uk": "Більбао",
        "name:xmf": "ბილბაო",
        "name:zh": "毕尔巴鄂",
        "name:zh-Hans": "毕尔巴鄂",
        "name:zh-Hant": "畢爾巴鄂",
        "place": "city",
        "population": "343430",
        "population:date": "2019",
        "source:population": "Eustat",
        "website": "https://www.bilbao.eus",
        "wikidata": "Q31913753",
        "wikipedia": "ceb:Bilbao (munisipyo sa Espanya, Euskal Autonomia Erkidegoa / Comunidad Autónoma Vasca, Bizkaia, lat 43,26, long -2,93)"
      },
      "geometry": {
        "type": "Point",
        "coordinates": [
          -2.9350039,
          43.2630018
        ]
      },
      "id": "node/27000762"
    },
    {
      "type": "Feature",
      "properties": {
        "@id": "node/27000791",
        "admin_level": "8",
        "alt_name:el": "Βιτόρια-Γκαστέις;Γκαστέις",
        "capital": "4",
        "ele": "539",
        "idee:name": "Vitoria-Gasteiz",
        "name": "Vitoria-Gasteiz",
        "name:ar": "فيتوريا-غاستيز",
        "name:az": "Vitoriya-Qasteys",
        "name:azb": "بیتوریا",
        "name:be": "Віторыя",
        "name:bg": "Витория-Гастейс",
        "name:ca": "Vitòria",
        "name:el": "Βιτόρια",
        "name:es": "Vitoria",
        "name:eu": "Gasteiz",
        "name:ext": "Vitória",
        "name:fa": "بیتوریا",
        "name:fr": "Vitoria-Gasteiz",
        "name:he": "ויטוריה",
        "name:hu": "Vitoria-Gasteiz",
        "name:hy": "Վիտորիա",
        "name:ja": "ビトリア",
        "name:ka": "ვიტორია",
        "name:kk": "Витория",
        "name:ko": "비토리아",
        "name:la": "Nova Victoria",
        "name:lt": "Vitorija-Gasteisas",
        "name:lv": "Vitorija",
        "name:mk": "Виторија",
        "name:mn": "Виториа-Гастейс",
        "name:mr": "व्हितोरिया",
        "name:os": "Витори",
        "name:pnb": "وٹوریا",
        "name:ru": "Витория",
        "name:sa": "विटोरिया-गास्टिज़",
        "name:sr": "Виторија",
        "name:sr-Latn": "Vitorija",
        "name:th": "บิโตเรีย",
        "name:uk": "Віторія",
        "name:ur": "بیتوریا-گاستیئس",
        "name:wa": "Gasteysse",
        "name:yi": "וויטאריע",
        "name:zh": "維多利亞",
        "name:zh-Hans": "维多利亚",
        "name:zh-Hant": "維多利亞",
        "note": "Please, abstain from changing the \"place\" tag to \"place=city\".",
        "place": "city",
        "population": "242223",
        "population:date": "2012",
        "ref:ine": "01059006300",
        "source": "Instituto Geográfico Nacional",
        "source:date": "2011-06",
        "source:ele": "MDT5",
        "source:file": "http://centrodedescargas.cnig.es/CentroDescargas/equipamiento/BD_Municipios-Entidades.zip",
        "source:name": "Nomenclátor Geográfico de Municipios y Entidades de Población",
        "source:population": "BOE REAL DECRETO 1683/2007, de 14 de diciembre",
        "wikidata": "Q14318"
      },
      "geometry": {
        "type": "Point",
        "coordinates": [
          -2.6724025,
          42.8465088
        ]
      },
      "id": "node/27000791"
    },
    {
      "type": "Feature",
      "properties": {
        "@id": "node/28849760",
        "admin_level": "8",
        "alt_name:el": "Ιρούνια",
        "alt_name:eu": "Iruña",
        "capital": "4",
        "ele": "450",
        "name": "Pamplona/Iruña",
        "name:ar": "بنبلونة",
        "name:ast": "Pamplona",
        "name:be": "Памплона",
        "name:ca": "Pamplona",
        "name:da": "Pamplona",
        "name:el": "Παμπλόνα",
        "name:en": "Pamplona",
        "name:es": "Pamplona",
        "name:et": "Pamplona",
        "name:eu": "Iruñea",
        "name:fr": "Pampelune",
        "name:he": "פמפלונה",
        "name:hy": "Պամպլոնա",
        "name:ja": "パンプローナ",
        "name:ka": "პამპლონა",
        "name:ko": "팜플로냐",
        "name:la": "Pompelo",
        "name:oc": "Pampalona",
        "name:pl": "Pampeluna",
        "name:ru": "Памплона",
        "name:sr": "Памплона",
        "name:th": "ปัมโปลนา",
        "name:zh": "潘普洛納",
        "name:zh-Hans": "潘普洛纳",
        "name:zh-Hant": "潘普洛納",
        "note": "El nombre oficial en euskera es \"Iruña\", pero el recomendado por Euskaltzaindia \"Iruñea\"",
        "official_name": "Pamplona/Iruña",
        "place": "city",
        "population": "196166",
        "population:date": "2014",
        "ref:ine": "31201000200",
        "source": "Instituto Geográfico Nacional",
        "source:date": "2011-06",
        "source:ele": "MDT5",
        "source:file": "http://centrodedescargas.cnig.es/CentroDescargas/equipamiento/BD_Municipios-Entidades.zip",
        "source:name": "Nomenclátor Geográfico de Municipios y Entidades de Población",
        "source:name:oc": "ieo-bdtopoc",
        "wikidata": "Q10282",
        "wikipedia": "es:Pamplona"
      },
      "geometry": {
        "type": "Point",
        "coordinates": [
          -1.6442556,
          42.8184538
        ]
      },
      "id": "node/28849760"
    },
    {
      "type": "Feature",
      "properties": {
        "@id": "node/29015863",
        "admin_level": "4",
        "capital": "4",
        "name": "Santa Cruz de Tenerife",
        "name:ar": "سانتا كروث دي تينيريفه",
        "name:es": "Santa Cruz de Tenerife",
        "name:fr": "Santa Cruz de Ténérife",
        "name:ja": "サンタ・クルス・デ・テネリフェ",
        "name:ko": "산타크루스데테네리페",
        "name:lt": "Tenerifės Santa Krusas",
        "name:ru": "Санта-Крус-де-Тенерифе",
        "name:short": "Santa Cruz",
        "name:zh": "圣克鲁斯-德特内里费",
        "place": "city",
        "population": "144518",
        "population:date": "2017",
        "ref:ine": "38038002500",
        "source": "Instituto Geográfico Nacional",
        "source:date": "2011-06",
        "source:file": "http://centrodedescargas.cnig.es/CentroDescargas/equipamiento/BD_Municipios-Entidades.zip",
        "source:name": "Nomenclátor Geográfico de Municipios y Entidades de Población",
        "source:population": "BOE REAL DECRETO 1683/2007, de 14 de diciembre",
        "wikidata": "Q14328",
        "wikipedia": "es:Santa Cruz de Tenerife"
      },
      "geometry": {
        "type": "Point",
        "coordinates": [
          -16.2540884,
          28.469648
        ]
      },
      "id": "node/29015863"
    },
    {
      "type": "Feature",
      "properties": {
        "@id": "node/29215168",
        "admin_level": "8",
        "alt_name:ar": "شقوبي;شقوبيه;أشقوبيه;سيجوفيا",
        "capital": "6",
        "ele": "1002",
        "heritage": "1",
        "heritage:operator": "whc",
        "name": "Segovia",
        "name:ar": "شقوبية",
        "name:be": "Сеговія",
        "name:ca": "Segòvia",
        "name:el": "Σεγόβια",
        "name:es": "Segovia",
        "name:fa": "سگوبیا",
        "name:fr": "Ségovie",
        "name:lt": "Segovija",
        "name:ru": "Сеговия",
        "name:sr": "Сеговија",
        "name:ur": "شقوبیہ",
        "name:zh": "塞哥維亞",
        "place": "city",
        "population": "50309",
        "population:date": "2015",
        "ref:ine": "40194000600",
        "source": "Instituto Geográfico Nacional",
        "source:date": "2011-06",
        "source:ele": "MDT5",
        "source:file": "http://centrodedescargas.cnig.es/CentroDescargas/equipamiento/BD_Municipios-Entidades.zip",
        "source:name": "Nomenclátor Geográfico de Municipios y Entidades de Población",
        "source:population": "BOE REAL DECRETO 1683/2007, de 14 de diciembre",
        "wikidata": "Q15684",
        "wikipedia": "es:Segovia"
      },
      "geometry": {
        "type": "Point",
        "coordinates": [
          -4.1241494,
          40.9502159
        ]
      },
      "id": "node/29215168"
    },
    {
      "type": "Feature",
      "properties": {
        "@id": "node/29272534",
        "admin_level": "8",
        "capital": "6",
        "ele": "690",
        "name": "Valladolid",
        "name:ar": "بلد الوليد",
        "name:be": "Вальядалід",
        "name:ca": "Valladolid",
        "name:el": "Βαγιαδολίδ",
        "name:es": "Valladolid",
        "name:ru": "Вальядолид",
        "name:sr": "Ваљадолид",
        "name:zh-Hans": "巴利亚多利德",
        "name:zh-Hant": "華拉杜列",
        "place": "city",
        "population": "299186",
        "population:date": "2015",
        "ref:ine": "47186000500",
        "source": "Instituto Geográfico Nacional",
        "source:date": "2011-06",
        "source:ele": "MDT5",
        "source:file": "http://centrodedescargas.cnig.es/CentroDescargas/equipamiento/BD_Municipios-Entidades.zip",
        "source:name": "Nomenclátor Geográfico de Municipios y Entidades de Población",
        "source:population": "BOE REAL DECRETO 1683/2007, de 14 de diciembre",
        "wikidata": "Q8356",
        "wikipedia": "es:Valladolid"
      },
      "geometry": {
        "type": "Point",
        "coordinates": [
          -4.728562,
          41.6521328
        ]
      },
      "id": "node/29272534"
    },
    {
      "type": "Feature",
      "properties": {
        "@id": "node/29333339",
        "admin_level": "4",
        "capital": "4",
        "ele": "8",
        "name": "Las Palmas de Gran Canaria",
        "name:ar": "لاس بالماس دي غران كناريا",
        "name:be": "Лас-Пальмас",
        "name:fr": "Las Palmas de Grande Canarie",
        "name:is": "Las Palmas de Gran Canaria",
        "name:ko": "라스팔마스",
        "name:lt": "Gran Kanarijos las Palmas",
        "name:pl": "Las Palmas de Gran Canaria",
        "name:ru": "Лас-Пальмас-де-Гран-Канария",
        "name:zh": "大加那利岛拉斯帕尔马斯",
        "place": "city",
        "population": "377203",
        "ref:ine": "35016002400",
        "source": "landsat;Instituto Geográfico Nacional",
        "source:date": "2011-06",
        "source:ele": "MDT5",
        "source:file": "http://centrodedescargas.cnig.es/CentroDescargas/equipamiento/BD_Municipios-Entidades.zip",
        "source:name": "Nomenclátor Geográfico de Municipios y Entidades de Población",
        "source:population": "BOE REAL DECRETO 1683/2007, de 14 de diciembre",
        "website": "https://www.laspalmasgc.es/",
        "wikidata": "Q11974"
      },
      "geometry": {
        "type": "Point",
        "coordinates": [
          -15.4349015,
          28.1288694
        ]
      },
      "id": "node/29333339"
    },
    {
      "type": "Feature",
      "properties": {
        "@id": "node/30044584",
        "admin_level": "8",
        "capital": "6",
        "ele": "681",
        "name": "Albacete",
        "name:ar": "البسيط",
        "name:be": "Альбасетэ",
        "name:el": "Αλμπαθέτε",
        "name:es": "Albacete",
        "name:hu": "Albacete",
        "name:ja": "アルバセテ",
        "name:ru": "Альбасете",
        "name:sr": "Албасете",
        "note": "La etiqueta de Albacete estaba duplicada; por tanto, he unificado la información de ambas.\nThere were two different labels about Albacete. I have unified data of both labels into one.",
        "place": "city",
        "population": "173329",
        "ref:ine": "02003000200",
        "source": "Instituto Geográfico Nacional",
        "source:date": "2011-06",
        "source:ele": "MDT5",
        "source:file": "http://centrodedescargas.cnig.es/CentroDescargas/equipamiento/BD_Municipios-Entidades.zip",
        "source:name": "Nomenclátor Geográfico de Municipios y Entidades de Población",
        "source:population": "BOE REAL DECRETO 1683/2007, de 14 de diciembre",
        "wikidata": "Q15095",
        "wikipedia": "es:Albacete"
      },
      "geometry": {
        "type": "Point",
        "coordinates": [
          -1.8559154,
          38.9950921
        ]
      },
      "id": "node/30044584"
    },
    {
      "type": "Feature",
      "properties": {
        "@id": "node/30843230",
        "admin_level": "8",
        "capital": "6",
        "ele": "138",
        "idee:name": "Ourense",
        "name": "Ourense",
        "name:ar": "أورنسي",
        "name:ast": "Ourense",
        "name:be": "Арэнсэ",
        "name:ca": "Ourense",
        "name:de": "Ourense",
        "name:el": "Οουρένσε",
        "name:en": "Ourense",
        "name:es": "Orense",
        "name:fr": "Ourense",
        "name:gl": "Ourense",
        "name:ja": "オウレンセ",
        "name:mwl": "Ourense",
        "name:pt": "Ourense",
        "name:ru": "Оцренсе",
        "name:sr": "Оцренсе",
        "old_name:el": "Οuρένσε",
        "place": "city",
        "population": "107186",
        "ref:ine": "32054000100",
        "source": "Instituto Geográfico Nacional",
        "source:date": "2011-06",
        "source:ele": "MDT5",
        "source:file": "http://centrodedescargas.cnig.es/CentroDescargas/equipamiento/BD_Municipios-Entidades.zip",
        "source:name": "Nomenclátor Geográfico de Municipios y Entidades de Población",
        "source:population": "BOE REAL DECRETO 1683/2007, de 14 de diciembre",
        "wikidata": "Q99151",
        "wikipedia": "gl:Ourense"
      },
      "geometry": {
        "type": "Point",
        "coordinates": [
          -7.8674242,
          42.3436415
        ]
      },
      "id": "node/30843230"
    },
    {
      "type": "Feature",
      "properties": {
        "@id": "node/30894545",
        "addr:country": "ES",
        "admin_level": "8",
        "alt_name:be": "Херона",
        "alt_name:el": "Χερόνα",
        "alt_name:lt": "Cherona",
        "capital": "6",
        "ele": "70",
        "ine:municipio": "17079",
        "ine:provincia": "17",
        "name": "Girona",
        "name:an": "Chirona",
        "name:ar": "جرندة",
        "name:ast": "Xirona",
        "name:be": "Жырона",
        "name:ca": "Girona",
        "name:el": "Ζιρόνα",
        "name:es": "Gerona",
        "name:eu": "Girona",
        "name:fa": "خرنا",
        "name:fr": "Gérone",
        "name:gl": "Xirona",
        "name:he": "ז'ירונה",
        "name:ja": "ジローナ",
        "name:ko": "지로나",
        "name:lt": "Žirona",
        "name:nl": "Gerona",
        "name:oc": "Girona",
        "name:pt": "Gerunda",
        "name:ru": "Жирона",
        "name:sr": "Ђирона",
        "name:uk": "Жірона",
        "name:zh": "赫罗纳",
        "name:zh-Hans": "赫罗纳",
        "name:zh-Hant": "吉隆納",
        "official_name": "Girona",
        "place": "city",
        "population": "92186",
        "ref:ine": "17079000500",
        "source": "Instituto Geográfico Nacional",
        "source:date": "2011-06",
        "source:file": "http://centrodedescargas.cnig.es/CentroDescargas/equipamiento/BD_Municipios-Entidades.zip",
        "source:name": "Nomenclátor Geográfico de Municipios y Entidades de Población",
        "source:name:oc": "ieo-bdtopoc",
        "source:population": "BOE REAL DECRETO 1683/2007, de 14 de diciembre",
        "website": "http://www.girona.cat",
        "wikidata": "Q7038",
        "wikipedia": "ca:Girona"
      },
      "geometry": {
        "type": "Point",
        "coordinates": [
          2.8199439,
          41.9793006
        ]
      },
      "id": "node/30894545"
    },
    {
      "type": "Feature",
      "properties": {
        "@id": "node/31432063",
        "admin_level": "8",
        "capital": "6",
        "ele": "837",
        "name": "León",
        "name:ar": "ليون",
        "name:ast": "Llión",
        "name:be": "Леон",
        "name:ca": "Lleó",
        "name:el": "Λεόν",
        "name:es": "León",
        "name:eu": "Leon",
        "name:ja": "レオン",
        "name:ru": "Леон",
        "name:sr": "Леон",
        "place": "city",
        "population": "119150",
        "population:date": "2017",
        "ref:ine": "24089000200",
        "source": "Instituto Geográfico Nacional",
        "source:date": "2011-06",
        "source:ele": "MDT5",
        "source:file": "http://centrodedescargas.cnig.es/CentroDescargas/equipamiento/BD_Municipios-Entidades.zip",
        "source:name": "Nomenclátor Geográfico de Municipios y Entidades de Población",
        "source:population": "http://www.ine.es/",
        "wikidata": "Q15699",
        "wikipedia": "es:León (España)"
      },
      "geometry": {
        "type": "Point",
        "coordinates": [
          -5.5682413,
          42.5989995
        ]
      },
      "id": "node/31432063"
    },
    {
      "type": "Feature",
      "properties": {
        "@id": "node/34105607",
        "admin_level": "8",
        "alt_name:el": "Βαλένσια",
        "alt_name:tr": "Valensiya",
        "capital": "4",
        "ele": "16",
        "int_name": "Valencia",
        "name": "València",
        "name:am": "ቫለንሲያ",
        "name:ar": "فالنسيا",
        "name:az": "Valensiya",
        "name:azb": "والنسیا",
        "name:be": "Валенсія",
        "name:bn": "ভ্যালেন্সিয়া",
        "name:ca": "Valencia",
        "name:cs": "Valencie",
        "name:de": "Valencia",
        "name:el": "Βαλένθια",
        "name:en": "Valencia",
        "name:es": "Valencia",
        "name:eu": "Valentzia",
        "name:fr": "Valence",
        "name:it": "Valencia",
        "name:ka": "ვალენსია",
        "name:la": "Valentia",
        "name:lt": "Valensija",
        "name:lv": "Valensija",
        "name:nl": "Valencia",
        "name:oc": "Valéncia",
        "name:pl": "Walencja",
        "name:ru": "Валенсия",
        "name:sr": "Валенсија",
        "name:tr": "Belensiye",
        "name:uk": "Валенсія",
        "name:zh": "瓦倫西亞",
        "name:zh-Hans": "瓦伦西亚",
        "name:zh-Hant": "瓦倫西亞",
        "official_name": "València",
        "old_name:ca-valencia": "València",
        "place": "city",
        "population": "797654",
        "ref:ine": "46250001400",
        "source": "Instituto Geográfico Nacional",
        "source:date": "2011-06",
        "source:ele": "MDT5",
        "source:file": "http://centrodedescargas.cnig.es/CentroDescargas/equipamiento/BD_Municipios-Entidades.zip",
        "source:name": "Nomenclátor Geográfico de Municipios y Entidades de Población",
        "source:name:oc": "Lo Congrès",
        "source:population": "BOE REAL DECRETO 1683/2007, de 14 de diciembre",
        "wikidata": "Q8818",
        "wikipedia": "ca:València"
      },
      "geometry": {
        "type": "Point",
        "coordinates": [
          -0.3763353,
          39.4697065
        ]
      },
      "id": "node/34105607"
    },
    {
      "type": "Feature",
      "properties": {
        "@id": "node/52228684",
        "admin_level": "8",
        "capital": "8",
        "ele": "23",
        "name": "Badalona",
        "name:ar": "بادالونا",
        "name:be": "Бадалона",
        "name:bg": "Бадалона",
        "name:ca": "Badalona",
        "name:el": "Μπαδαλόνα",
        "name:fa": "بادالونا",
        "name:hy": "Բադալոնա",
        "name:ja": "バダロナ",
        "name:ka": "ბადალონა",
        "name:kk": "Бадалона",
        "name:ko": "바달로나",
        "name:ru": "Бадалона",
        "name:sa": "बाडालोना",
        "name:sr": "Бадалона",
        "name:th": "บาดาโลนา",
        "name:uk": "Бадалона",
        "name:zh": "巴达洛纳",
        "place": "city",
        "population": "220888",
        "ref:ine": "08015000100",
        "source": "Nomenclátor Geográfico de Municipios y Entidades de Población",
        "source:date": "2011-06",
        "source:ele": "MDT5",
        "source:file": "http://centrodedescargas.cnig.es/CentroDescargas/equipamiento/BD_Municipios-Entidades.zip",
        "wikidata": "Q15468",
        "wikipedia": "ca:Badalona"
      },
      "geometry": {
        "type": "Point",
        "coordinates": [
          2.248254,
          41.4493539
        ]
      },
      "id": "node/52228684"
    },
    {
      "type": "Feature",
      "properties": {
        "@id": "node/64835706",
        "admin_level": "8",
        "capital": "6",
        "ele": "570",
        "heritage": "3",
        "heritage:operator": "Junta de Andalucía",
        "name": "Jaén",
        "name:ar": "جيان",
        "name:be": "Хаэн",
        "name:el": "Χαέν",
        "name:es": "Jaén",
        "name:lt": "Chaenas",
        "name:ru": "Хаэн",
        "name:sr": "Хаен",
        "place": "city",
        "population": "116790",
        "postal_code": "23001-23009",
        "ref:ine": "23050000900",
        "source": "Instituto Geográfico Nacional",
        "source:date": "2011-06",
        "source:ele": "MDT5",
        "source:file": "http://centrodedescargas.cnig.es/CentroDescargas/equipamiento/BD_Municipios-Entidades.zip",
        "source:name": "Nomenclátor Geográfico de Municipios y Entidades de Población",
        "source:population": "INE",
        "wikidata": "Q15681",
        "wikipedia": "es:Jaén"
      },
      "geometry": {
        "type": "Point",
        "coordinates": [
          -3.7883289,
          37.7728858
        ]
      },
      "id": "node/64835706"
    },
    {
      "type": "Feature",
      "properties": {
        "@id": "node/65523130",
        "admin_level": "8",
        "capital": "8",
        "ele": "26",
        "name": "Mataró",
        "name:ar": "ماتارو",
        "name:ca": "Mataró",
        "name:el": "Ματαρό",
        "name:es": "Mataró",
        "name:lt": "Mataro",
        "name:ru": "Матаро",
        "name:uk": "Матаро",
        "place": "city",
        "population": "116698",
        "ref:ine": "08121000100",
        "source": "Institut Geogràfic de Catalunya",
        "source:date": "2011-06",
        "source:ele": "MDT5",
        "source:file": "http://centrodedescargas.cnig.es/CentroDescargas/equipamiento/BD_Municipios-Entidades.zip",
        "source:name": "Nomenclátor Geográfico de Municipios y Entidades de Población",
        "wikidata": "Q11492",
        "wikipedia": "ca:Mataró"
      },
      "geometry": {
        "type": "Point",
        "coordinates": [
          2.4448926,
          41.5398348
        ]
      },
      "id": "node/65523130"
    },
    {
      "type": "Feature",
      "properties": {
        "@id": "node/84550790",
        "admin_level": "8",
        "capital": "8",
        "ele": "19",
        "name": "Vigo",
        "name:ar": "فيغو",
        "name:ca": "Vigo",
        "name:ckb": "ڤیگۆ",
        "name:el": "Βίγο",
        "name:ru": "Виго",
        "name:sr": "Виго",
        "place": "city",
        "population": "297332",
        "population:date": "2011",
        "ref:ine": "36057000200",
        "source": "Instituto Geográfico Nacional",
        "source:date": "2011-06",
        "source:ele": "MDT5",
        "source:file": "http://centrodedescargas.cnig.es/CentroDescargas/equipamiento/BD_Municipios-Entidades.zip",
        "source:name": "Nomenclátor Geográfico de Municipios y Entidades de Población",
        "wikidata": "Q8745",
        "wikipedia": "gl:Vigo"
      },
      "geometry": {
        "type": "Point",
        "coordinates": [
          -8.7247205,
          42.2376602
        ]
      },
      "id": "node/84550790"
    },
    {
      "type": "Feature",
      "properties": {
        "@id": "node/91254710",
        "admin_level": "8",
        "alt_name:el": "Φερόλ",
        "capital": "7",
        "ele": "9",
        "name": "Ferrol",
        "name:ar": "فيرول",
        "name:el": "Φερρόλ",
        "name:es": "Ferrol",
        "name:gl": "Ferrol",
        "place": "city",
        "population": "74000",
        "ref:ine": "15036000100",
        "source": "Instituto Geográfico Nacional",
        "source:date": "2011-06",
        "source:ele": "MDT5",
        "source:file": "http://centrodedescargas.cnig.es/CentroDescargas/equipamiento/BD_Municipios-Entidades.zip",
        "source:name": "Nomenclátor Geográfico de Municipios y Entidades de Población",
        "wikidata": "Q485329",
        "wikipedia": "gl:Ferrol"
      },
      "geometry": {
        "type": "Point",
        "coordinates": [
          -8.233162,
          43.4846862
        ]
      },
      "id": "node/91254710"
    },
    {
      "type": "Feature",
      "properties": {
        "@id": "node/124083658",
        "addr:country": "ES",
        "addr:province": "Lleida",
        "admin_level": "8",
        "capital": "6",
        "ele": "167",
        "name": "Lleida",
        "name:ar": "لاردة",
        "name:ca": "Lleida",
        "name:el": "Λιέιδα",
        "name:es": "Lérida",
        "name:fr": "Lérida",
        "name:lt": "Lerida",
        "name:oc": "Lhèida",
        "name:ru": "Ллейда",
        "name:sr": "Љеида",
        "place": "city",
        "population": "138416",
        "population:date": "2011",
        "ref:ine": "25120000600",
        "source": "Instituto Geográfico Nacional",
        "source:date": "2011-06",
        "source:ele": "MDT5",
        "source:file": "http://centrodedescargas.cnig.es/CentroDescargas/equipamiento/BD_Municipios-Entidades.zip",
        "source:name": "Nomenclátor Geográfico de Municipios y Entidades de Población",
        "source:population": "BOE REAL DECRETO 1683/2007, de 14 de diciembre",
        "wikidata": "Q15090",
        "wikipedia": "ca:Lleida"
      },
      "geometry": {
        "type": "Point",
        "coordinates": [
          0.6267842,
          41.6147605
        ]
      },
      "id": "node/124083658"
    },
    {
      "type": "Feature",
      "properties": {
        "@id": "node/152364165",
        "admin_level": "8",
        "alt_name:gl": "Barna",
        "capital": "4",
        "ele": "13",
        "name": "Barcelona",
        "name:ar": "برشلونة",
        "name:be": "Барселона",
        "name:ca": "Barcelona",
        "name:ckb": "بارسێلۆنا",
        "name:de": "Barcelona",
        "name:el": "Βαρκελώνη",
        "name:es": "Barcelona",
        "name:eu": "Bartzelona",
        "name:fr": "Barcelone",
        "name:gl": "Barcelona",
        "name:hi": "बार्सॆलोना",
        "name:it": "Barcellona",
        "name:ja": "バルセロナ",
        "name:kn": "ಬಾರ್ಸೆಲೋನಾ",
        "name:lt": "Barselona",
        "name:mk": "Барселона",
        "name:oc": "Barcelona",
        "name:pl": "Barcelona",
        "name:pt": "Barcelona",
        "name:ru": "Барселона",
        "name:sr": "Барселона",
        "name:uk": "Барселона",
        "name:zh": "巴塞罗那",
        "name:zh-Hans": "巴塞罗那",
        "name:zh-Hant": "巴塞隆納",
        "place": "city",
        "population": "1615908",
        "ref:ine": "08019000100",
        "source": "Instituto Geográfico Nacional",
        "source:date": "2011-06",
        "source:ele": "MDT5",
        "source:file": "http://centrodedescargas.cnig.es/CentroDescargas/equipamiento/BD_Municipios-Entidades.zip",
        "source:name": "Nomenclátor Geográfico de Municipios y Entidades de Población",
        "source:name:oc": "Lo Congrès",
        "source:population": "Wikipedia / INE 2008",
        "wikidata": "Q1492",
        "wikipedia": "ca:Barcelona"
      },
      "geometry": {
        "type": "Point",
        "coordinates": [
          2.1774322,
          41.3828939
        ]
      },
      "id": "node/152364165"
    },
    {
      "type": "Feature",
      "properties": {
        "@id": "node/152377920",
        "addr:country": "ES",
        "admin_level": "8",
        "alt_name:el": "Ταραγόνα",
        "capital": "6",
        "ele": "69",
        "idescat:comarca": "36",
        "idescat:àmbit": "03",
        "ine:ccaa": "09",
        "ine:provincia": "43",
        "name": "Tarragona",
        "name:ar": "طراغونة",
        "name:be": "Тарагона",
        "name:ca": "Tarragona",
        "name:el": "Ταρραγόνα",
        "name:es": "Tarragona",
        "name:fa": "تاراگونا",
        "name:fr": "Tarragone",
        "name:he": "טרגונה",
        "name:ja": "タラゴナ",
        "name:ko": "타라고나",
        "name:la": "Tarraco",
        "name:lt": "Taragona",
        "name:oc": "Tarragona",
        "name:ru": "Таррагона",
        "name:sr": "Тарагона",
        "name:uk": "Таррагона",
        "name:zh": "塔拉戈纳",
        "name:zh-Hans": "塔拉戈纳",
        "name:zh-Hant": "塔拉戈納",
        "place": "city",
        "population": "134085",
        "population:date": "2011",
        "ref:ine": "43148001300",
        "source": "Instituto Geográfico Nacional",
        "source:date": "2011-06",
        "source:ele": "MDT5",
        "source:file": "http://centrodedescargas.cnig.es/CentroDescargas/equipamiento/BD_Municipios-Entidades.zip",
        "source:name": "Nomenclátor Geográfico de Municipios y Entidades de Población",
        "source:population": "BOE REAL DECRETO 1683/2007, de 14 de diciembre",
        "wikidata": "Q15088",
        "wikipedia": "ca:Tarragona"
      },
      "geometry": {
        "type": "Point",
        "coordinates": [
          1.2546057,
          41.1172364
        ]
      },
      "id": "node/152377920"
    },
    {
      "type": "Feature",
      "properties": {
        "@id": "node/152377926",
        "addr:country": "ES",
        "addr:province": "Tarragona",
        "admin_level": "8",
        "capital": "7",
        "ele": "117",
        "name": "Reus",
        "name:ca": "Reus",
        "name:el": "Ρέους",
        "name:lt": "Reusas",
        "name:ru": "Реус",
        "name:uk": "Реус",
        "place": "city",
        "population": "104630",
        "population:date": "2009",
        "ref:ine": "43123000600",
        "source": "Instituto Geográfico Nacional",
        "source:date": "2011-06",
        "source:ele": "MDT5",
        "source:file": "http://centrodedescargas.cnig.es/CentroDescargas/equipamiento/BD_Municipios-Entidades.zip",
        "source:name": "Nomenclátor Geográfico de Municipios y Entidades de Población",
        "wikidata": "Q487096",
        "wikipedia": "ca:Reus"
      },
      "geometry": {
        "type": "Point",
        "coordinates": [
          1.1076133,
          41.1555564
        ]
      },
      "id": "node/152377926"
    },
    {
      "type": "Feature",
      "properties": {
        "@id": "node/154892855",
        "admin_level": "8",
        "alt_name:ar": "سيوداد ريال",
        "capital": "6",
        "ele": "625",
        "name": "Ciudad Real",
        "name:ar": "ثيوداد ريال",
        "name:be": "Сьюдад-Рэаль",
        "name:el": "Θιουδάδ Ρεάλ",
        "name:es": "Ciudad Real",
        "name:ja": "シウダー・レアル",
        "name:la": "Civitas Regia",
        "name:ru": "Сьюдад-Реаль",
        "name:sr": "Сијудад Реал",
        "place": "city",
        "population": "71005",
        "ref:ine": "13034000200",
        "source": "Instituto Geográfico Nacional",
        "source:date": "2011-06",
        "source:ele": "MDT5",
        "source:file": "http://centrodedescargas.cnig.es/CentroDescargas/equipamiento/BD_Municipios-Entidades.zip",
        "source:name": "Nomenclátor Geográfico de Municipios y Entidades de Población",
        "source:population": "BOE REAL DECRETO 1683/2007, de 14 de diciembre",
        "wikidata": "Q15093"
      },
      "geometry": {
        "type": "Point",
        "coordinates": [
          -3.9285138,
          38.9854201
        ]
      },
      "id": "node/154892855"
    },
    {
      "type": "Feature",
      "properties": {
        "@id": "node/166920565",
        "admin_level": "8",
        "alt_name:ar": "بورغوس",
        "capital": "6",
        "ele": "859",
        "heritage": "3",
        "heritage:operator": "Junta de Castilla y León",
        "name": "Burgos",
        "name:ar": "برغش",
        "name:be": "Бургас",
        "name:el": "Μπούργος",
        "name:es": "Burgos",
        "name:ja": "ブルゴス",
        "name:ru": "Бургос",
        "name:sr": "Бургос",
        "place": "city",
        "population": "171784",
        "population:date": "2015",
        "ref:ine": "09059000100",
        "source": "Instituto Geográfico Nacional",
        "source:date": "2011-06",
        "source:ele": "MDT5",
        "source:file": "http://centrodedescargas.cnig.es/CentroDescargas/equipamiento/BD_Municipios-Entidades.zip",
        "source:name": "Nomenclátor Geográfico de Municipios y Entidades de Población",
        "source:population": "BOE REAL DECRETO 1683/2007, de 14 de diciembre",
        "wikidata": "Q24010572"
      },
      "geometry": {
        "type": "Point",
        "coordinates": [
          -3.696977,
          42.343926
        ]
      },
      "id": "node/166920565"
    },
    {
      "type": "Feature",
      "properties": {
        "@id": "node/181290810",
        "admin_level": "8",
        "alt_name:ar": "لوجو",
        "capital": "6",
        "name": "Lugo",
        "name:ar": "لوغو",
        "name:be": "Луга",
        "name:ca": "Lugo",
        "name:el": "Λούγο",
        "name:gl": "Lugo",
        "name:lt": "Lugas",
        "name:ru": "Луго",
        "name:zh-Hans": "卢戈",
        "name:zh-Hant": "盧戈",
        "place": "city",
        "population": "98457",
        "source": "Instituto Geográfico Nacional",
        "source:date": "2011-06",
        "source:file": "http://centrodedescargas.cnig.es/CentroDescargas/equipamiento/BD_Municipios-Entidades.zip",
        "source:name": "Nomenclátor Geográfico de Municipios y Entidades de Población",
        "website": "http://lugo.es",
        "wikidata": "Q11125",
        "wikipedia": "gl:Lugo"
      },
      "geometry": {
        "type": "Point",
        "coordinates": [
          -7.5565749,
          43.0118437
        ]
      },
      "id": "node/181290810"
    },
    {
      "type": "Feature",
      "properties": {
        "@id": "node/203701688",
        "admin_level": "8",
        "alt_name:ar": "إلش;إلتشه",
        "alt_name:el": "Έλτς",
        "alt_name:gl": "Elxe",
        "capital": "8",
        "ele": "82",
        "name": "Elx / Elche",
        "name:ar": "ألش",
        "name:ca": "Elx",
        "name:el": "Έλτσε",
        "name:es": "Elche",
        "name:et": "Elche",
        "name:gl": "Elx",
        "name:ja": "エルチェ",
        "name:ru": "Эльче",
        "name:sr": "Елче",
        "official_name:ca": "Elx",
        "official_name:es": "Elche",
        "old_name:el": "Ελίκη",
        "old_name:en": "Helike",
        "place": "city",
        "population": "228675",
        "population:date": "2017",
        "ref:ine": "03065001100",
        "source": "Instituto Geográfico Nacional",
        "source:date": "2011-06",
        "source:ele": "MDT5",
        "source:file": "http://centrodedescargas.cnig.es/CentroDescargas/equipamiento/BD_Municipios-Entidades.zip",
        "source:name": "Nomenclátor Geográfico de Municipios y Entidades de Población",
        "source:population": "http://ine.es/jaxiT3/Datos.htm?t=2856",
        "wikidata": "Q10509",
        "wikipedia": "ca:Elx"
      },
      "geometry": {
        "type": "Point",
        "coordinates": [
          -0.6988391,
          38.2653307
        ]
      },
      "id": "node/203701688"
    },
    {
      "type": "Feature",
      "properties": {
        "@id": "node/209144042",
        "admin_level": "8",
        "alt_name:ar": "ألكالا دي إيناريس",
        "capital": "8",
        "ele": "587",
        "heritage": "1",
        "heritage:operator": "whc",
        "name": "Alcalá de Henares",
        "name:ar": "القلعة الحجارة",
        "name:el": "Αλκαλά ντε Ενάρες",
        "name:es": "Alcalá de Henares",
        "name:fa": "الکالا د هنارس",
        "name:hu": "Alcalá de Henares",
        "name:lt": "Alkala de Henaresas",
        "name:ru": "Алькала-де-Энарес",
        "name:sr": "Алкала де Енарес",
        "name:uk": "Алькала-де-Енарес",
        "name:ur": "الکالا دے ایناریس",
        "place": "city",
        "population": "200537",
        "population:date": "2014",
        "ref:ine": "28005000100",
        "source": "Instituto Geográfico Nacional",
        "source:date": "2011-06",
        "source:ele": "MDT5",
        "source:file": "http://centrodedescargas.cnig.es/CentroDescargas/equipamiento/BD_Municipios-Entidades.zip",
        "source:name": "Nomenclátor Geográfico de Municipios y Entidades de Población",
        "wikidata": "Q46940",
        "wikipedia": "es:Alcalá de Henares"
      },
      "geometry": {
        "type": "Point",
        "coordinates": [
          -3.3644973,
          40.4818396
        ]
      },
      "id": "node/209144042"
    },
    {
      "type": "Feature",
      "properties": {
        "@id": "node/230421116",
        "admin_level": "8",
        "capital": "8",
        "ele": "586",
        "name": "Torrejón de Ardoz",
        "name:es": "Torrejón de Ardoz",
        "name:hu": "Torrejón de Ardoz",
        "name:lt": "Torechon de Ardosas",
        "name:ru": "Торрехон-де-Ардос",
        "name:sr": "Торехон де Ардос",
        "name:uk": "Торрехон-де-Ардос",
        "place": "city",
        "population": "117407",
        "population:date": "2009",
        "postal_code": "28850",
        "ref:ine": "28148000100",
        "source": "Instituto Geográfico Nacional",
        "source:date": "2011-06",
        "source:ele": "MDT5",
        "source:file": "centrodedescargas.cnig.es/CentroDescargas/equipamiento/BD_Municipios-Entidades.zip",
        "source:name": "Nomenclátor Geográfico de Municipios y Entidades de Población",
        "wikidata": "Q489839",
        "wikipedia": "es:Torrejón de Ardoz"
      },
      "geometry": {
        "type": "Point",
        "coordinates": [
          -3.4793343,
          40.4587767
        ]
      },
      "id": "node/230421116"
    },
    {
      "type": "Feature",
      "properties": {
        "@id": "node/232712665",
        "admin_level": "6",
        "capital": "6",
        "ele": "34",
        "name": "Castelló de la Plana",
        "name:be": "Кастэльён-дэ-ла-Плана",
        "name:ca": "Castelló de la Plana",
        "name:el": "Καστεγιόν δε λα Πλάνα",
        "name:en": "Castelló de la Plana",
        "name:gl": "Castellón da Prana",
        "name:it": "Castelló de la Plana",
        "name:ja": "カステリョン・デ・ラ・プラナ",
        "name:ru": "Кастельон-де-ла-Плана",
        "name:sr": "Кастељон де ла Плана",
        "official_name": "Castelló de la Plana",
        "place": "city",
        "population": "174264",
        "population:date": "2020",
        "postal_code": "12001",
        "ref:ine": "12040000100",
        "source": "Instituto Geográfico Nacional",
        "source:date": "2011-06",
        "source:ele": "MDT5",
        "source:file": "http://centrodedescargas.cnig.es/CentroDescargas/equipamiento/BD_Municipios-Entidades.zip",
        "source:name": "Nomenclátor Geográfico de Municipios y Entidades de Población"
      },
      "geometry": {
        "type": "Point",
        "coordinates": [
          -0.0377354,
          39.9860347
        ]
      },
      "id": "node/232712665"
    },
    {
      "type": "Feature",
      "properties": {
        "@id": "node/240357542",
        "admin_level": "8",
        "alt_name:ar": "قشرش;كاثيريس;كاثيرس",
        "capital": "6",
        "ele": "457",
        "heritage": "1",
        "heritage:operator": "whc",
        "name": "Cáceres",
        "name:ar": "قصرش",
        "name:be": "Касерэс",
        "name:ca": "Càceres",
        "name:el": "Κάθερες",
        "name:es": "Cáceres",
        "name:fa": "کاسرس",
        "name:ja": "カセレス",
        "name:lt": "Kaseresas",
        "name:ru": "Касерес",
        "name:ur": "کاکیریس",
        "name:zh": "卡塞雷斯",
        "place": "city",
        "population": "95814",
        "ref:ine": "10037000100",
        "source": "Instituto Geográfico Nacional",
        "source:date": "2011-06",
        "source:ele": "MDT5",
        "source:file": "http://centrodedescargas.cnig.es/CentroDescargas/equipamiento/BD_Municipios-Entidades.zip",
        "source:name": "Nomenclátor Geográfico de Municipios y Entidades de Población",
        "source:population": "BOE REAL DECRETO 1683/2007, de 14 de diciembre",
        "website": "https://www.ayto-caceres.es/",
        "wikidata": "Q15678",
        "wikipedia": "es:Cáceres"
      },
      "geometry": {
        "type": "Point",
        "coordinates": [
          -6.3716761,
          39.4745175
        ]
      },
      "id": "node/240357542"
    },
    {
      "type": "Feature",
      "properties": {
        "@id": "node/240422991",
        "admin_level": "6",
        "alt_name:ar": "قونقة;كونيكا",
        "capital": "6",
        "ele": "997",
        "heritage": "1",
        "heritage:operator": "whc",
        "name": "Cuenca",
        "name:ar": "قونكة",
        "name:be": "Куэнка",
        "name:ca": "Conca",
        "name:el": "Κουένκα",
        "name:es": "Cuenca",
        "name:la": "Concha",
        "name:lt": "Kuenka",
        "name:ru": "Куэнка",
        "name:sr": "Куенка",
        "place": "city",
        "population": "52980",
        "ref:ine": "16078000300",
        "ref:whc": "781",
        "source": "Instituto Geográfico Nacional",
        "source:date": "2011-06",
        "source:ele": "MDT5",
        "source:file": "http://centrodedescargas.cnig.es/CentroDescargas/equipamiento/BD_Municipios-Entidades.zip",
        "source:name": "Nomenclátor Geográfico de Municipios y Entidades de Población",
        "source:population": "BOE REAL DECRETO 1683/2007, de 14 de diciembre",
        "whc:criteria": "(ii)(v)",
        "whc:inscription_date": "1996",
        "wikidata": "Q15098",
        "wikipedia": "es:Cuenca (España)"
      },
      "geometry": {
        "type": "Point",
        "coordinates": [
          -2.1348241,
          40.0681156
        ]
      },
      "id": "node/240422991"
    },
    {
      "type": "Feature",
      "properties": {
        "@id": "node/240422994",
        "admin_level": "8",
        "capital": "6",
        "ele": "13",
        "heritage": "3",
        "heritage:operator": "Junta de Andalucía",
        "name": "Cádiz",
        "name:ar": "قادس",
        "name:be": "Кадыс",
        "name:ca": "Cadis",
        "name:el": "Κάδιθ",
        "name:eu": "Karize",
        "name:fr": "Cadix",
        "name:ja": "カディス",
        "name:la": "Gadira",
        "name:pl": "Kadyks",
        "name:pt": "Cádis",
        "name:ru": "Кадис",
        "name:sr": "Кадиз",
        "name:zh-Hans": "加的斯",
        "name:zh-Hant": "加的斯",
        "place": "city",
        "population": "125826",
        "ref:ine": "11012000100",
        "source": "Instituto Geográfico Nacional",
        "source:date": "2011-06",
        "source:ele": "MDT5",
        "source:file": "http://centrodedescargas.cnig.es/CentroDescargas/equipamiento/BD_Municipios-Entidades.zip",
        "source:name": "Nomenclátor Geográfico de Municipios y Entidades de Población",
        "source:population": "INE",
        "wikidata": "Q15682",
        "wikipedia": "es:Cádiz"
      },
      "geometry": {
        "type": "Point",
        "coordinates": [
          -6.2928976,
          36.5297438
        ]
      },
      "id": "node/240422994"
    },
    {
      "type": "Feature",
      "properties": {
        "@id": "node/240422997",
        "admin_level": "8",
        "alt_name:ar": "الميريا",
        "capital": "6",
        "ele": "23",
        "name": "Almería",
        "name:ar": "ألمرية",
        "name:be": "Альмерыя",
        "name:ca": "Almeria",
        "name:el": "Αλμερία",
        "name:en": "Almeria",
        "name:ext": "Almeria",
        "name:fr": "Alméria",
        "name:ja": "アルメリア",
        "name:lt": "Almerija",
        "name:oc": "Almeria",
        "name:pt": "Almeria",
        "name:ru": "Альмерия",
        "name:sr": "Алмерија",
        "name:tr": "Meriye",
        "place": "city",
        "population": "194515",
        "population:date": "2011",
        "postal_code": "04001-04009",
        "ref:ine": "04013000100",
        "source": "Instituto Geográfico Nacional",
        "source:date": "2011-06",
        "source:ele": "MDT5",
        "source:file": "http://centrodedescargas.cnig.es/CentroDescargas/equipamiento/BD_Municipios-Entidades.zip",
        "source:name": "Nomenclátor Geográfico de Municipios y Entidades de Población",
        "source:population": "Instituto Nacional de Estadística (INE) - Cifras de población referidas por municipios y sexo",
        "website": "http://www.aytoalmeria.es/",
        "wikidata": "Q10400",
        "wikipedia": "es:Almería"
      },
      "geometry": {
        "type": "Point",
        "coordinates": [
          -2.4628135,
          36.8414197
        ]
      },
      "id": "node/240422997"
    },
    {
      "type": "Feature",
      "properties": {
        "@id": "node/240423001",
        "alt_name:ar": "باداخوز",
        "name": "Badajoz",
        "name:ar": "بطليوس",
        "name:ast": "Badaxoz",
        "name:be": "Бадахас",
        "name:el": "Μπαδαχόθ",
        "name:es": "Badajoz",
        "name:ext": "Baajós",
        "name:fa": "باداخوس",
        "name:hu": "Badajoz",
        "name:la": "Pax Augusta",
        "name:lt": "Badachosas",
        "name:ru": "Бадахос",
        "name:tr": "Batalyevs",
        "name:ur": "بطليوس",
        "place": "city",
        "population": "149892",
        "source": "Instituto Geográfico Nacional",
        "wikidata": "Q15679",
        "wikipedia": "es:Badajoz"
      },
      "geometry": {
        "type": "Point",
        "coordinates": [
          -6.9702048,
          38.8780585
        ]
      },
      "id": "node/240423001"
    },
    {
      "type": "Feature",
      "properties": {
        "@id": "node/240423005",
        "alt_name:ar": "تيرويل",
        "capital": "6",
        "ele": "915",
        "heritage": "3",
        "heritage:operator": "Gobierno de Aragón",
        "idee:name": "Teruel",
        "name": "Teruel",
        "name:an": "Teruel",
        "name:ar": "طرويل",
        "name:be": "Тэруэль",
        "name:bg": "Теруел",
        "name:ca": "Terol",
        "name:el": "Τερουέλ",
        "name:en": "Teruel",
        "name:eo": "Teruelo",
        "name:es": "Teruel",
        "name:eu": "Teruel",
        "name:fa": "تروئل",
        "name:fr": "Teruel",
        "name:gl": "Teruel",
        "name:he": "טרואל",
        "name:ja": "テルエル",
        "name:ka": "ტერუელი",
        "name:kk": "Теруэль",
        "name:ko": "테루엘",
        "name:la": "Terulium",
        "name:lt": "Teruelis",
        "name:oc": "Teròl",
        "name:pt": "Teruel",
        "name:ru": "Теруэль",
        "name:sr": "Теруел",
        "name:uk": "Теруель",
        "name:ur": "تیرویل",
        "name:wuu": "特鲁艾",
        "name:yue": "特魯埃爾",
        "name:zh": "特魯埃爾",
        "name:zh-Hans": "特鲁埃尔",
        "place": "city",
        "population": "34236",
        "ref:ine": "44216000800",
        "source": "Instituto Geográfico Nacional",
        "source:date": "2011-06",
        "source:ele": "MDT5",
        "source:file": "http://centrodedescargas.cnig.es/CentroDescargas/equipamiento/BD_Municipios-Entidades.zip",
        "source:name": "Nomenclátor Geográfico de Municipios y Entidades de Población",
        "source:population": "BOE REAL DECRETO 1683/2007, de 14 de diciembre",
        "wikidata": "Q14336",
        "wikipedia": "an:Teruel"
      },
      "geometry": {
        "type": "Point",
        "coordinates": [
          -1.1081939,
          40.3436719
        ]
      },
      "id": "node/240423005"
    },
    {
      "type": "Feature",
      "properties": {
        "@id": "node/240423007",
        "admin_level": "8",
        "alt_name:ar": "سرية;سوريا",
        "capital": "6",
        "ele": "1061",
        "name": "Soria",
        "name:ar": "سريا",
        "name:be": "Сорыя",
        "name:ca": "Sòria",
        "name:el": "Σόρια",
        "name:fa": "سریا",
        "name:he": "סוריה",
        "name:ja": "ソリア",
        "name:pt": "Sória",
        "name:ru": "Сория",
        "name:sr": "Сорија",
        "name:ur": "سریا",
        "name:zh": "索里亚",
        "place": "city",
        "population": "38885",
        "population:date": "2015",
        "ref:ine": "42173000400",
        "source": "Instituto Geográfico Nacional",
        "source:date": "2011-06",
        "source:ele": "MDT5",
        "source:file": "http://centrodedescargas.cnig.es/CentroDescargas/equipamiento/BD_Municipios-Entidades.zip",
        "source:name": "Nomenclátor Geográfico de Municipios y Entidades de Población",
        "wikidata": "Q56121478",
        "wikipedia": "sv:Soria, Spanien"
      },
      "geometry": {
        "type": "Point",
        "coordinates": [
          -2.4642041,
          41.7633842
        ]
      },
      "id": "node/240423007"
    },
    {
      "type": "Feature",
      "properties": {
        "@id": "node/240423010",
        "admin_level": "8",
        "alt_name:ar": "سلمانكا",
        "capital": "6",
        "ele": "798",
        "heritage": "1",
        "heritage:operator": "whc",
        "name": "Salamanca",
        "name:ar": "شلمنقة",
        "name:be": "Саламанка",
        "name:el": "Σαλαμάνκα",
        "name:es": "Salamanca",
        "name:fa": "سالامانکا",
        "name:fr": "Salamanque",
        "name:ja": "サラマンカ",
        "name:lt": "Salamanka",
        "name:ru": "Саламанка",
        "name:sr": "Саламанка",
        "name:uk": "Саламанка",
        "name:ur": "سالامانکا",
        "place": "city",
        "population": "146438",
        "population:date": "2015",
        "ref:ine": "37274000200",
        "source": "Instituto Geográfico Nacional",
        "source:date": "2011-06",
        "source:ele": "MDT5",
        "source:file": "http://centrodedescargas.cnig.es/CentroDescargas/equipamiento/BD_Municipios-Entidades.zip",
        "source:name": "Nomenclátor Geográfico de Municipios y Entidades de Población",
        "source:population": "http://www.ine.es/",
        "wikidata": "Q15695",
        "wikipedia": "es:Salamanca"
      },
      "geometry": {
        "type": "Point",
        "coordinates": [
          -5.6640182,
          40.9651572
        ]
      },
      "id": "node/240423010"
    },
    {
      "type": "Feature",
      "properties": {
        "@id": "node/240423012",
        "admin_level": "8",
        "capital": "6",
        "ele": "734",
        "name": "Palencia",
        "name:an": "Palenzia",
        "name:ar": "بالنثيا",
        "name:be": "Паленсія",
        "name:ca": "Palència",
        "name:el": "Παλένθια",
        "name:es": "Palencia",
        "name:eu": "Palentzia",
        "name:fa": "پالنسیا",
        "name:ja": "パレンシア",
        "name:la": "Palantia",
        "name:oc": "Paléncia",
        "name:pt": "Palência",
        "name:ru": "Паленсия",
        "name:sr": "Паленсија",
        "place": "city",
        "population": "79573",
        "population:date": "2015",
        "ref:ine": "34120000100",
        "source": "Instituto Geográfico Nacional",
        "source:date": "2011-06",
        "source:ele": "MDT5",
        "source:file": "http://centrodedescargas.cnig.es/CentroDescargas/equipamiento/BD_Municipios-Entidades.zip",
        "source:name": "Nomenclátor Geográfico de Municipios y Entidades de Población",
        "wikidata": "Q8378"
      },
      "geometry": {
        "type": "Point",
        "coordinates": [
          -4.5328735,
          42.0108856
        ]
      },
      "id": "node/240423012"
    },
    {
      "type": "Feature",
      "properties": {
        "@id": "node/240423022",
        "admin_level": "6",
        "alt_name:ar": "هيوليفا;ولفا",
        "capital": "6",
        "ele": "24",
        "name": "Huelva",
        "name:ar": "ولبة",
        "name:be": "Уэльва",
        "name:el": "Ουέλβα",
        "name:es": "Huelva",
        "name:ja": "ウエルバ",
        "name:lt": "Huelva",
        "name:ru": "Уэльва",
        "name:sr": "Уелва",
        "place": "city",
        "population": "147212",
        "population:date": "2014-01-01",
        "ref:ine": "21041000100",
        "source": "Instituto Geográfico Nacional",
        "source:date": "2011-06",
        "source:ele": "MDT5",
        "source:file": "http://centrodedescargas.cnig.es/CentroDescargas/equipamiento/BD_Municipios-Entidades.zip",
        "source:name": "Nomenclátor Geográfico de Municipios y Entidades de Población",
        "source:population": "INE",
        "wikidata": "Q12246",
        "wikipedia": "es:Huelva"
      },
      "geometry": {
        "type": "Point",
        "coordinates": [
          -6.9484945,
          37.2575874
        ]
      },
      "id": "node/240423022"
    },
    {
      "type": "Feature",
      "properties": {
        "@id": "node/240423025",
        "admin_level": "6",
        "capital": "6",
        "ele": "684",
        "name": "Granada",
        "name:ar": "غرناطة",
        "name:be": "Гранада",
        "name:el": "Γρανάδα",
        "name:en": "Granada",
        "name:fr": "Grenade",
        "name:he": "גרנדה",
        "name:ja": "グラナダ",
        "name:lt": "Granada",
        "name:oc": "Granada",
        "name:pl": "Grenada",
        "name:ru": "Гранада",
        "name:sr": "Гранада",
        "name:tr": "Gırnata",
        "name:uk": "Гранада",
        "name:zh": "格拉纳达",
        "place": "city",
        "population": "227935",
        "population:date": "2018",
        "ref:ine": "18087000400",
        "source": "Instituto Geográfico Nacional",
        "source:date": "2011-06",
        "source:ele": "MDT5",
        "source:file": "http://centrodedescargas.cnig.es/CentroDescargas/equipamiento/BD_Municipios-Entidades.zip",
        "source:name": "Nomenclátor Geográfico de Municipios y Entidades de Población",
        "source:name:oc": "Lo Congrès",
        "source:population": "Instituto Nacional de Estadística",
        "wikidata": "Q8810",
        "wikipedia": "es:Granada"
      },
      "geometry": {
        "type": "Point",
        "coordinates": [
          -3.5995337,
          37.1734995
        ]
      },
      "id": "node/240423025"
    },
    {
      "type": "Feature",
      "properties": {
        "@id": "node/248815337",
        "admin_level": "8",
        "alt_name:el": "Ντος Χερμάνας",
        "capital": "8",
        "ele": "52",
        "name": "Dos Hermanas",
        "name:ar": "دوس إيرماناس",
        "name:el": "Ντος Ερμάνας",
        "name:hu": "Dos Hermanas",
        "name:ru": "Дос-Эрманас",
        "name:sr": "Дос Ерманас",
        "name:zh-Hans": "多斯埃尔马纳斯",
        "name:zh-Hant": "多斯埃爾馬納斯",
        "place": "city",
        "population": "131855",
        "population:date": "2016",
        "ref:ine": "41038000100",
        "source": "Instituto Geográfico Nacional",
        "source:date": "2011-06",
        "source:ele": "MDT5",
        "source:file": "http://centrodedescargas.cnig.es/CentroDescargas/equipamiento/BD_Municipios-Entidades.zip",
        "source:name": "Nomenclátor Geográfico de Municipios y Entidades de Población",
        "wikidata": "Q489205",
        "wikipedia": "es:Dos Hermanas"
      },
      "geometry": {
        "type": "Point",
        "coordinates": [
          -5.9226718,
          37.283689
        ]
      },
      "id": "node/248815337"
    },
    {
      "type": "Feature",
      "properties": {
        "@id": "node/248820656",
        "admin_level": "8",
        "alt_name:ar": "سيفيلا",
        "alt_name:gl": "Sevilha",
        "capital": "4",
        "ele": "7",
        "name": "Sevilla",
        "name:ar": "إشبيلية",
        "name:be": "Севілья",
        "name:ca": "Sevilla",
        "name:de": "Sevilla",
        "name:el": "Σεβίλλη",
        "name:en": "Seville",
        "name:es": "Sevilla",
        "name:fr": "Séville",
        "name:gl": "Sevilla",
        "name:hr": "Sevilla",
        "name:it": "Siviglia",
        "name:ja": "セビリア",
        "name:nl": "Sevilla",
        "name:pl": "Sewilla",
        "name:pt": "Sevilha",
        "name:ru": "Севилья",
        "name:sl": "Sevilja",
        "name:sr": "Севиља",
        "name:tr": "İşbîliye",
        "name:uk": "Севілья",
        "name:zh": "塞維亞",
        "name:zh-Hans": "塞维利亚",
        "name:zh-Hant": "塞維亞",
        "place": "city",
        "population": "703206",
        "source": "Instituto Geográfico Nacional",
        "source:date": "2011-06",
        "source:file": "http://centrodedescargas.cnig.es/CentroDescargas/equipamiento/BD_Municipios-Entidades.zip",
        "source:name": "Nomenclátor Geográfico de Municipios y Entidades de Población",
        "source:population": "INE",
        "wikidata": "Q8717"
      },
      "geometry": {
        "type": "Point",
        "coordinates": [
          -5.9953403,
          37.3886303
        ]
      },
      "id": "node/248820656"
    },
    {
      "type": "Feature",
      "properties": {
        "@id": "node/252217933",
        "admin_level": "8",
        "alt_name:ar": "مريدا",
        "capital": "4",
        "ele": "224",
        "name": "Mérida",
        "name:ar": "ماردة",
        "name:be": "Мерыда",
        "name:ca": "Mèrida",
        "name:el": "Μέριδα",
        "name:fa": "مریدا",
        "name:lt": "Merida",
        "name:ru": "Мерида",
        "name:ur": "میریدا",
        "place": "city",
        "population": "58971",
        "source:ele": "MDT5",
        "wikidata": "Q14323",
        "wikipedia": "es:Mérida (España)"
      },
      "geometry": {
        "type": "Point",
        "coordinates": [
          -6.3443977,
          38.9174665
        ]
      },
      "id": "node/252217933"
    },
    {
      "type": "Feature",
      "properties": {
        "@id": "node/252566396",
        "admin_level": "8",
        "capital": "7",
        "ele": "191",
        "name": "Sabadell",
        "name:ca": "Sabadell",
        "name:el": "Σαβαδέλ",
        "name:lt": "Sabadelis",
        "name:ru": "Сабадель",
        "place": "city",
        "population": "207444",
        "ref:ine": "08187000300",
        "source": "Instituto Geográfico Nacional",
        "source:date": "2011-06",
        "source:ele": "MDT5",
        "source:file": "http://centrodedescargas.cnig.es/CentroDescargas/equipamiento/BD_Municipios-Entidades.zip",
        "source:name": "Nomenclátor Geográfico de Municipios y Entidades de Población",
        "wikidata": "Q12258",
        "wikipedia": "es:Sabadell"
      },
      "geometry": {
        "type": "Point",
        "coordinates": [
          2.1138977,
          41.5421013
        ]
      },
      "id": "node/252566396"
    },
    {
      "type": "Feature",
      "properties": {
        "@id": "node/256150802",
        "admin_level": "8",
        "capital": "8",
        "ele": "669",
        "name": "Alcobendas",
        "name:ar": "ألكوبينداس",
        "name:hu": "Alcobendas",
        "name:ru": "Алькобендас",
        "name:sr": "Алкобендас",
        "place": "city",
        "population": "110080",
        "population:date": "2009",
        "ref:ine": "28006000100",
        "source": "Instituto Geográfico Nacional",
        "source:date": "2011-06",
        "source:ele": "MDT5",
        "source:file": "http://centrodedescargas.cnig.es/CentroDescargas/equipamiento/BD_Municipios-Entidades.zip",
        "source:name": "Nomenclátor Geográfico de Municipios y Entidades de Población",
        "wikidata": "Q487679"
      },
      "geometry": {
        "type": "Point",
        "coordinates": [
          -3.6358494,
          40.5400082
        ]
      },
      "id": "node/256150802"
    },
    {
      "type": "Feature",
      "properties": {
        "@id": "node/257352079",
        "admin_level": "8",
        "capital": "4",
        "ele": "384",
        "name": "Logroño",
        "name:ar": "لوغرونيو",
        "name:be": "Лагронья",
        "name:ca": "Logronyo",
        "name:el": "Λογρόνιο",
        "name:eu": "Logroño",
        "name:ja": "ログローニョ",
        "name:ru": "Логроньо",
        "name:sr": "Логроњо",
        "place": "city",
        "population": "145866",
        "ref:ine": "26089000200",
        "source": "Instituto Geográfico Nacional",
        "source:date": "2011-06",
        "source:ele": "MDT5",
        "source:file": "http://centrodedescargas.cnig.es/CentroDescargas/equipamiento/BD_Municipios-Entidades.zip",
        "source:name": "Nomenclátor Geográfico de Municipios y Entidades de Población",
        "source:population": "BOE REAL DECRETO 1683/2007, de 14 de diciembre",
        "wikidata": "Q14325"
      },
      "geometry": {
        "type": "Point",
        "coordinates": [
          -2.4396676,
          42.4661196
        ]
      },
      "id": "node/257352079"
    },
    {
      "type": "Feature",
      "properties": {
        "@id": "node/259219046",
        "admin_level": "6",
        "alt_name:ar": "غوادالاجارا",
        "capital": "6",
        "ele": "685",
        "name": "Guadalajara",
        "name:ar": "وادي الحجارة",
        "name:be": "Гвадалахара",
        "name:ca": "Guadalajara",
        "name:el": "Γουαδαλαχάρα",
        "name:es": "Guadalajara",
        "name:fa": "گوادالاخارا",
        "name:ja": "グアダラハラ",
        "name:oc": "Guadalajara",
        "name:ru": "Гвадалахара",
        "name:sr": "Гвадалахара",
        "name:ur": "گوادالاخارا",
        "old_name:ar": "مدينة الفرج",
        "place": "city",
        "population": "83391",
        "ref:ine": "19130000100",
        "source": "Instituto Geográfico Nacional",
        "source:date": "2011-06",
        "source:ele": "MDT5",
        "source:file": "http://centrodedescargas.cnig.es/CentroDescargas/equipamiento/BD_Municipios-Entidades.zip",
        "source:name": "Nomenclátor Geográfico de Municipios y Entidades de Población",
        "source:name:oc": "Lo Congrès",
        "source:population": "BOE REAL DECRETO 1683/2007, de 14 de diciembre",
        "wikidata": "Q11953"
      },
      "geometry": {
        "type": "Point",
        "coordinates": [
          -3.1646067,
          40.6326979
        ]
      },
      "id": "node/259219046"
    },
    {
      "type": "Feature",
      "properties": {
        "@id": "node/260379284",
        "admin_level": "8",
        "alt_name:el": "Καρταχένα",
        "capital": "7",
        "ele": "67",
        "name": "Cartagena",
        "name:ar": "قرطاجنة",
        "name:el": "Καρθαγένη",
        "name:es": "Cartagena",
        "name:fr": "Carthagène",
        "name:lt": "Kartachena",
        "name:pl": "Kartagina",
        "name:ru": "Картахена",
        "name:sr": "Картахена",
        "name:uk": "Картахена",
        "old_name": "Carthago Nova",
        "place": "city",
        "population": "218244",
        "ref:ine": "30016",
        "source": "Instituto Geográfico Nacional",
        "source:date": "2013",
        "source:ele": "MDT5",
        "source:file": "http://centrodedescargas.cnig.es/CentroDescargas/equipamiento/BD_Municipios-Entidades.zip",
        "source:name": "Nomenclátor Geográfico de Municipios y Entidades de Población",
        "wikidata": "Q162615",
        "wikipedia": "es:Cartagena (España)"
      },
      "geometry": {
        "type": "Point",
        "coordinates": [
          -0.9841152,
          37.6019353
        ]
      },
      "id": "node/260379284"
    },
    {
      "type": "Feature",
      "properties": {
        "@id": "node/260380069",
        "admin_level": "8",
        "capital": "4",
        "ele": "42",
        "name": "Murcia",
        "name:ar": "مرسية",
        "name:be": "Мурсія",
        "name:ca": "Múrcia",
        "name:el": "Μούρθια",
        "name:es": "Murcia",
        "name:eu": "Murtzia",
        "name:fr": "Murcie",
        "name:lt": "Mursija",
        "name:pt": "Múrcia",
        "name:ru": "Мурсия",
        "name:sr": "Мурсија",
        "name:tr": "Mürsiye",
        "name:uk": "Мурсія",
        "name:zh-Hans": "木尔西亚",
        "name:zh-Hant": "木爾西亞",
        "place": "city",
        "population": "422861",
        "ref:ine": "30030000100",
        "source": "Instituto Geográfico Nacional",
        "source:date": "2011-06",
        "source:ele": "MDT5",
        "source:file": "http://centrodedescargas.cnig.es/CentroDescargas/equipamiento/BD_Municipios-Entidades.zip",
        "source:name": "Nomenclátor Geográfico de Municipios y Entidades de Población",
        "source:population": "BOE REAL DECRETO 1683/2007, de 14 de diciembre",
        "wikidata": "Q12225",
        "wikipedia": "es:Murcia"
      },
      "geometry": {
        "type": "Point",
        "coordinates": [
          -1.1305431,
          37.9923795
        ]
      },
      "id": "node/260380069"
    },
    {
      "type": "Feature",
      "properties": {
        "@id": "node/266776249",
        "alt_name:el": "Θαραγόθα",
        "capital": "4",
        "ele": "208",
        "name": "Zaragoza",
        "name:an": "Zaragoza",
        "name:ar": "سرقسطة",
        "name:be": "Сарагоса",
        "name:ca": "Saragossa",
        "name:ckb": "سەرەگۆسا",
        "name:de": "Saragossa",
        "name:el": "Σαραγόσα",
        "name:eo": "Zaragozo",
        "name:es": "Zaragoza",
        "name:ext": "Çaragoça",
        "name:fa": "ساراگوسا",
        "name:fr": "Saragosse",
        "name:fy": "Saragossa",
        "name:gl": "Zaragoza",
        "name:he": "סרגוסה",
        "name:hy": "Սարագոսա",
        "name:it": "Saragozza",
        "name:ja": "サラゴサ",
        "name:ka": "სარაგოსა",
        "name:kk": "Сарагоса",
        "name:ko": "사라고사",
        "name:la": "Caesaraugusta",
        "name:lb": "Saragossa",
        "name:lmo": "Saragoza",
        "name:lt": "Saragosa",
        "name:lv": "Saragosa",
        "name:mk": "Сарагоса",
        "name:mr": "सारागोसा",
        "name:mt": "Żaragoża",
        "name:oc": "Saragossa",
        "name:pl": "Saragossa",
        "name:pms": "Saragozza",
        "name:pt": "Saragoça",
        "name:ru": "Сарагоса",
        "name:scn": "Saragozza",
        "name:sr": "Сарагоса",
        "name:th": "ซาราโกซา",
        "name:tr": "Sarakusta",
        "name:ug": "Saragossa",
        "name:uk": "Сарагоса",
        "name:vec": "Saragosa",
        "name:zh": "萨拉戈萨",
        "name:zh-Hans": "萨拉戈萨",
        "name:zh-Hant": "札拉哥沙",
        "place": "city",
        "population": "654390",
        "ref:ine": "50297001700",
        "source": "Instituto Geográfico Nacional",
        "source:date": "2011-06",
        "source:ele": "MDT5",
        "source:file": "http://centrodedescargas.cnig.es/CentroDescargas/equipamiento/BD_Municipios-Entidades.zip",
        "source:name": "Nomenclátor Geográfico de Municipios y Entidades de Población",
        "source:population": "BOE REAL DECRETO 1683/2007, de 14 de diciembre",
        "url": "http://www.zaragoza.es",
        "wikidata": "Q10305",
        "wikipedia": "es:Zaragoza"
      },
      "geometry": {
        "type": "Point",
        "coordinates": [
          -0.8809428,
          41.6521342
        ]
      },
      "id": "node/266776249"
    },
    {
      "type": "Feature",
      "properties": {
        "@id": "node/267816660",
        "admin_level": "8",
        "capital": "7",
        "ele": "19",
        "name": "Algeciras",
        "name:ar": "الجزيرة الخضراء",
        "name:ca": "Algesires",
        "name:el": "Αλχεθίρας",
        "name:ru": "Альхесирас",
        "name:sr": "Алхесирас",
        "name:zh-Hans": "阿尔赫西拉斯",
        "name:zh-Hant": "阿爾赫西拉斯",
        "place": "city",
        "population": "115550",
        "population:date": "2009",
        "ref:ine": "11004000100",
        "source": "survey;Instituto Geográfico Nacional",
        "source:date": "2011-06",
        "source:ele": "MDT5",
        "source:file": "http://centrodedescargas.cnig.es/CentroDescargas/equipamiento/BD_Municipios-Entidades.zip",
        "source:name": "Nomenclátor Geográfico de Municipios y Entidades de Población",
        "wikidata": "Q484552",
        "wikipedia": "es:Algeciras"
      },
      "geometry": {
        "type": "Point",
        "coordinates": [
          -5.4473991,
          36.1311725
        ]
      },
      "id": "node/267816660"
    },
    {
      "type": "Feature",
      "properties": {
        "@id": "node/274980781",
        "admin_level": "8",
        "capital": "8",
        "ele": "147",
        "name": "Telde",
        "name:ar": "تيلدي",
        "name:ru": "Тельде",
        "place": "city",
        "population": "19437",
        "population:date": "2013",
        "ref:ine": "35026004400",
        "wikidata": "Q55845",
        "wikipedia": "en:Telde"
      },
      "geometry": {
        "type": "Point",
        "coordinates": [
          -15.4166761,
          27.9984538
        ]
      },
      "id": "node/274980781"
    },
    {
      "type": "Feature",
      "properties": {
        "@id": "node/288139569",
        "admin_level": "8",
        "capital": "7",
        "ele": "281",
        "name": "Terrassa",
        "name:ar": "تاراسا",
        "name:ca": "Terrassa",
        "name:el": "Τεράσα",
        "name:lt": "Terasa",
        "name:ru": "Террасса",
        "name:sr": "Тараса",
        "note": "The traditional name in Spanish is Tarrasa. The official name for the whole Spain is Terrassa.",
        "official_name:es": "Terrassa",
        "old_name:es": "Tarrasa",
        "place": "city",
        "population": "215517",
        "ref:ine": "08279000400",
        "source": "Instituto Geográfico Nacional",
        "source:date": "2011-06",
        "source:ele": "MDT5",
        "source:file": "http://centrodedescargas.cnig.es/CentroDescargas/equipamiento/BD_Municipios-Entidades.zip",
        "source:name": "Nomenclátor Geográfico de Municipios y Entidades de Población",
        "website": "https://www.terrassa.cat/",
        "wikidata": "Q13939",
        "wikipedia": "ca:Terrassa"
      },
      "geometry": {
        "type": "Point",
        "coordinates": [
          2.0100492,
          41.5629623
        ]
      },
      "id": "node/288139569"
    },
    {
      "type": "Feature",
      "properties": {
        "@id": "node/289031151",
        "admin_level": "4",
        "capital": "4",
        "ele": "0",
        "name": "Melilla",
        "name:ar": "مليلية",
        "name:ber": "ⵜⴰⵎⵍⵉⵍⵜ",
        "name:fa": "ملیله",
        "name:fr": "Melilla",
        "name:lt": "Melilja",
        "name:ru": "Мелилья",
        "name:zgh": "ⵜⴰⵎⵍⵉⵍⵜ",
        "name:zh": "梅利利亚",
        "place": "city",
        "population": "76034",
        "population:date": "2009",
        "ref:ine": "52001000300",
        "source": "Instituto Geográfico Nacional",
        "source:date": "2011-06",
        "source:ele": "MDT5",
        "source:file": "http://centrodedescargas.cnig.es/CentroDescargas/equipamiento/BD_Municipios-Entidades.zip",
        "source:name": "Nomenclátor Geográfico de Municipios y Entidades de Población",
        "wikidata": "Q5831",
        "wikipedia": "es:Melilla"
      },
      "geometry": {
        "type": "Point",
        "coordinates": [
          -2.9407146,
          35.2919028
        ]
      },
      "id": "node/289031151"
    },
    {
      "type": "Feature",
      "properties": {
        "@id": "node/289643197",
        "admin_level": "8",
        "alt_name": "Palma de Mallorca",
        "alt_name:ar": "مدينة مَيُورَقَة",
        "alt_name:be": "Пальма-дэ-Мальёрка",
        "alt_name:bg": "Палма де Майорка",
        "alt_name:el": "Πάλμα ντε Μαγιόρκα",
        "alt_name:eu": "Palma Mallorcakoa",
        "alt_name:fa": "پالما د مایورکا",
        "alt_name:fr": "Palma de Majorque",
        "alt_name:he": "פלמה דה מיורקה",
        "alt_name:it": "Palma di Maiorca",
        "alt_name:ja": "パルマ・デ・マリョルカ",
        "alt_name:ko": "팔마데마요르카",
        "alt_name:lt": "Maljorkos Palma",
        "alt_name:lv": "Palma de Maļorka",
        "alt_name:mr": "पाल्मा दे मायोर्का",
        "alt_name:pt": "Palma de Maiorca",
        "alt_name:ru": "Пальма-де-Мальорка",
        "alt_name:sr": "Палма де Мајорка",
        "capital": "4",
        "ele": "24",
        "int_name": "Palma de Mallorca",
        "name": "Palma",
        "name:ar": "ميورقة",
        "name:be": "Пальма",
        "name:bg": "Палма",
        "name:ca": "Palma",
        "name:el": "Πάλμα",
        "name:fa": "پالما",
        "name:he": "פלמה",
        "name:ja": "パルマ",
        "name:ka": "პალმა",
        "name:ko": "팔마데",
        "name:lt": "Maljorkos Palma",
        "name:mr": "पाल्मा",
        "name:pt": "Palma",
        "name:ru": "Пальма",
        "name:sr": "Палма",
        "name:th": "ปัลมา",
        "name:uk": "Пальма",
        "name:zh": "帕爾馬",
        "name:zh-Hans": "帕尔马",
        "name:zh-Hant": "帕爾馬",
        "note": "Although people say 'Palma de Mallorca' for not confusing to 'Las Palmas de Gran Canari' the correct name is 'Palma'",
        "note_2": "official_name is Palma, because the change of its name in 2011 it's not legally as state wikipedia (ca:Palma) (only in catalan) because no sufficient votes are done",
        "official_name": "Palma",
        "official_name:ca": "Palma",
        "place": "city",
        "population": "405318",
        "population:date": "2011",
        "ref:ine": "07040001200",
        "source": "BOE REAL DECRETO 1683/2007, de 14 de diciembre;Instituto Geográfico Nacional",
        "source:date": "2011-06",
        "source:ele": "MDT5",
        "source:file": "centrodedescargas.cnig.es/CentroDescargas/equipamiento/BD_Municipios-Entidades.zip",
        "source:name": "Nomenclátor Geográfico de Municipios y Entidades de Población",
        "wikidata": "Q8826",
        "wikipedia": "ca:Palma"
      },
      "geometry": {
        "type": "Point",
        "coordinates": [
          2.6500745,
          39.5695818
        ]
      },
      "id": "node/289643197"
    },
    {
      "type": "Feature",
      "properties": {
        "@id": "node/291768008",
        "admin_level": "8",
        "capital": "4",
        "ele": "20",
        "name": "Ceuta",
        "name:ar": "سبتة",
        "name:ber": "ⵙⴱⵜⴰ",
        "name:el": "Θέουτα",
        "name:fr": "Ceuta",
        "name:hu": "Ceuta",
        "name:lt": "Seuta",
        "name:ru": "Сеута",
        "name:sk": "Ceuta",
        "name:tr": "Sebte",
        "name:zgh": "ⵙⴱⵜⴰ",
        "name:zh": "休达",
        "place": "city",
        "population": "71251",
        "population:date": "2009",
        "ref:ine": "51001000200",
        "source": "Instituto Geográfico Nacional",
        "source:date": "2011-06",
        "source:ele": "MDT5",
        "source:file": "http://centrodedescargas.cnig.es/CentroDescargas/equipamiento/BD_Municipios-Entidades.zip",
        "source:name": "Nomenclátor Geográfico de Municipios y Entidades de Población",
        "wikidata": "Q5823",
        "wikipedia": "es:Ceuta"
      },
      "geometry": {
        "type": "Point",
        "coordinates": [
          -5.304138,
          35.888361
        ]
      },
      "id": "node/291768008"
    },
    {
      "type": "Feature",
      "properties": {
        "@id": "node/301424404",
        "admin_level": "8",
        "capital": "7",
        "ele": "35",
        "name": "Barakaldo",
        "name:es": "Baracaldo",
        "name:eu": "Barakaldo",
        "name:ru": "Баракальдо",
        "official_name": "Barakaldo",
        "place": "city",
        "population": "100020",
        "population:date": "2009",
        "postal_code": "48901",
        "ref:ine": "48013000400",
        "source": "Instituto Geográfico Nacional",
        "source:date": "2011-06",
        "source:ele": "MDT5",
        "source:file": "http://centrodedescargas.cnig.es/CentroDescargas/equipamiento/BD_Municipios-Entidades.zip",
        "source:name": "Nomenclátor Geográfico de Municipios y Entidades de Población",
        "wikidata": "Q487801"
      },
      "geometry": {
        "type": "Point",
        "coordinates": [
          -2.9900933,
          43.29548
        ]
      },
      "id": "node/301424404"
    },
    {
      "type": "Feature",
      "properties": {
        "@id": "node/305072315",
        "admin_level": "8",
        "capital": "8",
        "ele": "662",
        "name": "Fuenlabrada",
        "name:en": "Fuenlabrada",
        "name:hu": "Fuenlabrada",
        "name:ja": "フエンラブラダ",
        "name:ru": "Фуэнлабрада",
        "name:sr": "Фуенлабрада",
        "name:uk": "Фуенлабрада",
        "name:zh": "丰拉夫拉达",
        "place": "city",
        "population": "197520",
        "population:date": "2013",
        "population:source": "Instituto Nacional de Estadística",
        "ref:ine": "28058000100",
        "source": "Instituto Geográfico Nacional",
        "source:date": "2011-06",
        "source:ele": "MDT5",
        "source:file": "http://centrodedescargas.cnig.es/CentroDescargas/equipamiento/BD_Municipios-Entidades.zip",
        "source:name": "Nomenclátor Geográfico de Municipios y Entidades de Población",
        "wikidata": "Q54902",
        "wikipedia": "es:Fuenlabrada"
      },
      "geometry": {
        "type": "Point",
        "coordinates": [
          -3.7923422,
          40.282476
        ]
      },
      "id": "node/305072315"
    },
    {
      "type": "Feature",
      "properties": {
        "@id": "node/306524300",
        "admin_level": "8",
        "capital": "8",
        "ele": "711",
        "name": "Alcorcón",
        "name:en": "Alcorcón",
        "name:hu": "Alcorcón",
        "name:ja": "アルコルコン",
        "name:lt": "Alkorkonas",
        "name:ru": "Алькоркон",
        "name:sr": "Алкоркон",
        "name:uk": "Алькоркон",
        "name:zh": "阿尔科尔孔",
        "place": "city",
        "population": "172384",
        "population:date": "2020",
        "population:source": "Instituto Nacional de Estadística",
        "ref:ine": "28007000100",
        "source": "Instituto Geográfico Nacional",
        "source:date": "2021-08",
        "source:ele": "MDT5",
        "source:file": "http://centrodedescargas.cnig.es/CentroDescargas/equipamiento/BD_Municipios-Entidades.zip",
        "source:name": "Nomenclátor Geográfico de Municipios y Entidades de Población",
        "website": "http://www.ayto-alcorcon.es/",
        "wikidata": "Q10372",
        "wikipedia": "es:Alcorcón"
      },
      "geometry": {
        "type": "Point",
        "coordinates": [
          -3.8284295,
          40.3492998
        ]
      },
      "id": "node/306524300"
    },
    {
      "type": "Feature",
      "properties": {
        "@id": "node/306524430",
        "admin_level": "8",
        "alt_name:ar": "موستوليس",
        "capital": "8",
        "ele": "660",
        "name": "Móstoles",
        "name:ar": "موستولس",
        "name:el": "Μόστολες",
        "name:en": "Móstoles",
        "name:fa": "موستولس",
        "name:hu": "Móstoles",
        "name:ja": "モストレス",
        "name:ru": "Мостолес",
        "name:sr": "Мостолес",
        "name:ur": "موستولس",
        "name:zh": "莫斯托莱斯",
        "name:zh-Hans": "莫斯托莱斯",
        "place": "city",
        "population": "206451",
        "population:date": "2013",
        "population:source": "Instituto Nacional de Estadística",
        "ref:ine": "28092000100",
        "source": "Instituto Geográfico Nacional",
        "source:date": "2011-06",
        "source:ele": "MDT5",
        "source:file": "http://centrodedescargas.cnig.es/CentroDescargas/equipamiento/BD_Municipios-Entidades.zip",
        "source:name": "Nomenclátor Geográfico de Municipios y Entidades de Población",
        "wikidata": "Q187826",
        "wikipedia": "es:Móstoles"
      },
      "geometry": {
        "type": "Point",
        "coordinates": [
          -3.8649214,
          40.3238525
        ]
      },
      "id": "node/306524430"
    },
    {
      "type": "Feature",
      "properties": {
        "@id": "node/306524644",
        "admin_level": "8",
        "capital": "8",
        "ele": "667",
        "name": "Leganés",
        "name:en": "Leganés",
        "name:hu": "Leganés",
        "name:ja": "レガネス",
        "name:ru": "Леганес",
        "name:sr": "Леганес",
        "name:uk": "Леганес",
        "place": "city",
        "population": "186995",
        "population:date": "2013",
        "population:source": "Instituto Nacional de Estadística",
        "ref:ine": "28074000200",
        "source": "Instituto Geográfico Nacional",
        "source:date": "2011-06",
        "source:ele": "MDT5",
        "source:file": "http://centrodedescargas.cnig.es/CentroDescargas/equipamiento/BD_Municipios-Entidades.zip",
        "source:name": "Nomenclátor Geográfico de Municipios y Entidades de Población",
        "wikidata": "Q77433",
        "wikipedia": "es:Leganés"
      },
      "geometry": {
        "type": "Point",
        "coordinates": [
          -3.76527,
          40.3281942
        ]
      },
      "id": "node/306524644"
    },
    {
      "type": "Feature",
      "properties": {
        "@id": "node/306620202",
        "admin_level": "8",
        "capital": "8",
        "ele": "645",
        "name": "Parla",
        "name:ar": "بارلا",
        "name:el": "Πάρλα",
        "name:fa": "پارلا",
        "name:hu": "Parla",
        "name:ja": "パルラ",
        "name:ru": "Парла",
        "name:sr": "Парла",
        "name:uk": "Парла",
        "name:ur": "پرلا",
        "name:zh": "帕尔拉",
        "place": "city",
        "population": "125634",
        "population:date": "2013",
        "population:source": "Instituto Nacional de Estadística",
        "postal_code": "28980",
        "ref:ine": "28106000100",
        "source": "Instituto Geográfico Nacional",
        "source:date": "2011-06",
        "source:ele": "MDT5",
        "source:file": "http://centrodedescargas.cnig.es/CentroDescargas/equipamiento/BD_Municipios-Entidades.zip",
        "source:name": "Nomenclátor Geográfico de Municipios y Entidades de Población",
        "wikidata": "Q824651",
        "wikipedia": "es:Parla"
      },
      "geometry": {
        "type": "Point",
        "coordinates": [
          -3.7718902,
          40.2373952
        ]
      },
      "id": "node/306620202"
    },
    {
      "type": "Feature",
      "properties": {
        "@id": "node/493395619",
        "admin_level": "4",
        "alt_name": "Uviéu",
        "capital": "4",
        "ele": "231",
        "name": "Oviedo/Uviéu",
        "name:ar": "أوفييدو",
        "name:ast": "Uviéu",
        "name:be": "Аўеда",
        "name:ca": "Oviedo",
        "name:el": "Οβιέδο",
        "name:en": "Oviedo",
        "name:es": "Oviedo",
        "name:et": "Oviedo",
        "name:fr": "Oviède",
        "name:ru": "Овьедо",
        "note": "Decreto 14/2019, de 13 de marzo, por el que se determinan los topónimos oficiales del Concejo de Oviedo.",
        "official_name": "Oviedo/Uviéu",
        "place": "city",
        "population": "216607",
        "ref:ine": "33044190100",
        "reg_name": "Uviéu",
        "source": "Instituto Geográfico Nacional",
        "source:date": "2011-06",
        "source:ele": "MDT5",
        "source:file": "http://centrodedescargas.cnig.es/CentroDescargas/equipamiento/BD_Municipios-Entidades.zip",
        "source:name": "Nomenclátor Geográfico de Municipios y Entidades de Población",
        "source:population": "BOE REAL DECRETO 1683/2007, de 14 de diciembre",
        "wikidata": "Q14317"
      },
      "geometry": {
        "type": "Point",
        "coordinates": [
          -5.8448989,
          43.3605977
        ]
      },
      "id": "node/493395619"
    },
    {
      "type": "Feature",
      "properties": {
        "@id": "node/496524427",
        "admin_level": "8",
        "capital": "8",
        "ele": "367",
        "name": "Talavera de la Reina",
        "place": "city",
        "population": "85776",
        "population:date": "2009",
        "ref:ine": "45165000600",
        "source": "Instituto Geográfico Nacional",
        "source:date": "2011-06",
        "source:ele": "MDT5",
        "source:file": "http://centrodedescargas.cnig.es/CentroDescargas/equipamiento/BD_Municipios-Entidades.zip",
        "source:name": "Nomenclátor Geográfico de Municipios y Entidades de Población",
        "wikidata": "Q181359"
      },
      "geometry": {
        "type": "Point",
        "coordinates": [
          -4.8311717,
          39.9603798
        ]
      },
      "id": "node/496524427"
    },
    {
      "type": "Feature",
      "properties": {
        "@id": "node/529391484",
        "admin_level": "8",
        "alt_name": "Xixón",
        "capital": "8",
        "ele": "7",
        "ine:municipio": "Gijón/Xixón",
        "int_name": "Gijón/Xixón",
        "name": "Gijón/Xixón",
        "name:ar": "خيخون",
        "name:ast": "Xixón",
        "name:ca": "Gijón",
        "name:el": "Χιχόν",
        "name:en": "Gijón",
        "name:es": "Gijón",
        "name:et": "Gijón",
        "name:eu": "Kixoi",
        "name:fi": "Gijón",
        "name:fr": "Gijon",
        "name:gl": "Xixón",
        "name:ru": "Хихон",
        "name:sr": "Хихон",
        "name:zh-Hans": "希洪",
        "name:zh-Hant": "希洪",
        "official_name": "Gijón/Xixón",
        "old_name": "Gijón",
        "place": "city",
        "population": "277198",
        "ref:ine": "33024090100",
        "source": "Instituto Geográfico Nacional",
        "source:date": "2011-06",
        "source:ele": "MDT5",
        "source:file": "http://centrodedescargas.cnig.es/CentroDescargas/equipamiento/BD_Municipios-Entidades.zip",
        "source:name": "Nomenclátor Geográfico de Municipios y Entidades de Población",
        "wikidata": "Q12273"
      },
      "geometry": {
        "type": "Point",
        "coordinates": [
          -5.6626443,
          43.5450394
        ]
      },
      "id": "node/529391484"
    },
    {
      "type": "Feature",
      "properties": {
        "@id": "node/626639326",
        "admin_level": "8",
        "alt_name:ar": "آبله;افيلا",
        "capital": "6",
        "ele": "1131",
        "name": "Ávila",
        "name:ar": "آبلة",
        "name:be": "Авіла",
        "name:ca": "Àvila",
        "name:el": "Άβιλα",
        "name:es": "Ávila",
        "name:fa": "آبیلا",
        "name:he": "אווילה",
        "name:hi": "आवीला",
        "name:hy": "Ավիլա",
        "name:ja": "アビラ",
        "name:ka": "ავილა",
        "name:ko": "아빌라",
        "name:lt": "Avila",
        "name:ru": "Авила",
        "name:sr": "Авила",
        "name:th": "อาบิลา",
        "name:ur": "آبیلا",
        "name:zh": "阿维拉",
        "place": "city",
        "population": "57633",
        "population:date": "2015",
        "ref:ine": "05019000300",
        "source": "Instituto Geográfico Nacional",
        "source:date": "2011-06",
        "source:ele": "MDT5",
        "source:file": "http://centrodedescargas.cnig.es/CentroDescargas/equipamiento/BD_Municipios-Entidades.zip",
        "source:name": "Nomenclátor Geográfico de Municipios y Entidades de Población",
        "wikidata": "Q15688",
        "wikipedia": "es:Ávila"
      },
      "geometry": {
        "type": "Point",
        "coordinates": [
          -4.7002172,
          40.656478
        ]
      },
      "id": "node/626639326"
    },
    {
      "type": "Feature",
      "properties": {
        "@id": "node/688986898",
        "admin_level": "8",
        "capital": "6",
        "ele": "649",
        "name": "Zamora",
        "name:ar": "سمورة",
        "name:be": "Самора",
        "name:bn": "থামোরা",
        "name:el": "Θαμόρα",
        "name:es": "Zamora",
        "name:fa": "سامرا",
        "name:ja": "サモラ",
        "name:la": "Ocellum Duri",
        "name:ru": "Самора",
        "name:sr": "Замора",
        "place": "city",
        "population": "63693",
        "population:date": "2015",
        "ref:ine": "49275000200",
        "source": "Instituto Geográfico Nacional",
        "source:date": "2011-06",
        "source:ele": "MDT5",
        "source:file": "http://centrodedescargas.cnig.es/CentroDescargas/equipamiento/BD_Municipios-Entidades.zip",
        "source:name": "Nomenclátor Geográfico de Municipios y Entidades de Población",
        "source:population": "BOE REAL DECRETO 1683/2007, de 14 de diciembre",
        "wikidata": "Q15696"
      },
      "geometry": {
        "type": "Point",
        "coordinates": [
          -5.7448039,
          41.5056574
        ]
      },
      "id": "node/688986898"
    },
    {
      "type": "Feature",
      "properties": {
        "@id": "node/764716504",
        "admin_level": "6",
        "alt_name": "Ponte Vedra",
        "alt_name:gl": "Ponte Vedra",
        "capital": "6",
        "ele": "16",
        "name": "Pontevedra",
        "name:ar": "بونتيفيدرا",
        "name:be": "Пантэведра",
        "name:ca": "Pontevedra",
        "name:el": "Ποντεβέδρα",
        "name:es": "Pontevedra",
        "name:fa": "پنتبدرا",
        "name:gl": "Pontevedra",
        "name:ja": "ポンテベドラ",
        "name:pt": "Ponte Vedra",
        "name:ru": "Понтеведра",
        "name:sr": "Понтеведра",
        "name:zh": "蓬特韋德拉",
        "official_name": "Pontevedra",
        "place": "city",
        "population": "82400",
        "ref:ine": "36038000100",
        "source": "Instituto Geográfico Nacional",
        "source:date": "2011",
        "source:ele": "MDT5",
        "source:file": "http://centrodedescargas.cnig.es/CentroDescargas/equipamiento/BD_Municipios-Entidades.zip",
        "source:name": "Nomenclátor Geográfico de Municipios y Entidades de Población",
        "source:name:pt": "www.agal-gz.org/corporativo/media/docsCL/toponimia.pdf",
        "wikidata": "Q12411"
      },
      "geometry": {
        "type": "Point",
        "coordinates": [
          -8.6431592,
          42.4318876
        ]
      },
      "id": "node/764716504"
    },
    {
      "type": "Feature",
      "properties": {
        "@id": "node/939880925",
        "admin_level": "8",
        "capital": "8",
        "ele": "11",
        "name": "l'Hospitalet de Llobregat",
        "name:ca": "l'Hospitalet de Llobregat",
        "name:el": "Οσπιταλέτ ντε Λιοβρεγάτ",
        "name:ru": "Оспиталет-де-Льобрегат",
        "name:sr": "Лоспиталет де Љобрегат",
        "old_name:es": "Hospitalet de Llobregat",
        "place": "city",
        "population": "264923",
        "rank": "30",
        "ref:ine": "08101000100",
        "source": "Instituto Geográfico Nacional",
        "source:date": "2011-06",
        "source:ele": "MDT5",
        "source:file": "http://centrodedescargas.cnig.es/CentroDescargas/equipamiento/BD_Municipios-Entidades.zip",
        "source:name": "Nomenclátor Geográfico de Municipios y Entidades de Población",
        "source:population": "Wikipedia",
        "wikidata": "Q15470",
        "wikipedia": "ca:L'Hospitalet de Llobregat"
      },
      "geometry": {
        "type": "Point",
        "coordinates": [
          2.0997927,
          41.3598601
        ]
      },
      "id": "node/939880925"
    },
    {
      "type": "Feature",
      "properties": {
        "@id": "node/998649870",
        "admin_level": "8",
        "alt_name:ar": "شنت ياقوه;شنت ياقوب;شنت ياق;سنتياغو دي كومبوستيلا;سانتياغو دي كومبوستيلا",
        "alt_name:hr": "Sveti Jakov na Svjetlosnom Polju",
        "capital": "4",
        "ele": "260",
        "heritage": "1",
        "heritage:operator": "whc",
        "int_name": "Santiago de Compostela",
        "name": "Santiago de Compostela",
        "name:ar": "شنت ياقب",
        "name:be": "Сант'яга-дэ-Кампастэла",
        "name:bg": "Сантяго де Компостела",
        "name:br": "Sant-Jakez a Gompostela",
        "name:ca": "Santiago de Compostel·la",
        "name:el": "Σαντιάγο ντε Κομποστέλα",
        "name:es": "Santiago de Compostela",
        "name:eu": "Compostelako Donejakue",
        "name:fa": "سانتیاگو د کامپوستلا",
        "name:fr": "Saint-Jacques-de-Compostelle",
        "name:gl": "Santiago de Compostela",
        "name:he": "סנטיאגו דה קומפוסטלה",
        "name:hr": "Santiago de Compostela",
        "name:it": "Santiago di Compostela",
        "name:ja": "サンティアゴ・デ・コンポステーラ",
        "name:la": "Compostella",
        "name:lt": "Santjago de Kompostela",
        "name:nl": "Santiago de Compostella",
        "name:oc": "Compostèla",
        "name:ru": "Сантьяго-де-Компостела",
        "name:sr": "Сантијаго де Компостела",
        "name:th": "ซานเตียโกเดกอมโปสเตลา",
        "name:uk": "Сантьяґо-де-Компостела",
        "name:zh": "圣地亚哥－德孔波斯特拉",
        "name:zh-Hans": "圣地亚哥－德孔波斯特拉",
        "name:zh-Hant": "聖地亞哥德孔波斯特拉",
        "old_name:ca": "Sant Jaume de Galícia",
        "place": "city",
        "population": "94824",
        "ref:ine": "15078000100",
        "ref:whc": "347",
        "source": "Instituto Geográfico Nacional",
        "source:date": "2011-06",
        "source:ele": "MDT5",
        "source:file": "http://centrodedescargas.cnig.es/CentroDescargas/equipamiento/BD_Municipios-Entidades.zip",
        "source:name": "Nomenclátor Geográfico de Municipios y Entidades de Población",
        "source:name:br": "ofis publik ar brezhoneg",
        "whc:criteria": "(i)(ii)(vi)",
        "whc:inscription_date": "1985",
        "wikidata": "Q14314",
        "wikipedia": "es:Santiago de Compostela"
      },
      "geometry": {
        "type": "Point",
        "coordinates": [
          -8.5458608,
          42.8804219
        ]
      },
      "id": "node/998649870"
    },
    {
      "type": "Feature",
      "properties": {
        "@id": "node/1036673662",
        "admin_level": "8",
        "capital": "8",
        "ele": "549",
        "heritage": "1",
        "heritage:operator": "whc",
        "heritage:operator_1": "Gobierno de Canarias",
        "heritage_1": "3",
        "loc_name": "La Laguna",
        "name": "San Cristóbal de La Laguna",
        "name:ko": "산크리스토발데라라구나",
        "name:lt": "San Kristobal de la Lagūna",
        "name:ru": "Сан-Кристобаль-де-Ла-Лагуна",
        "name:uk": "Сан-Крістобаль-де-ла-Лагуна",
        "name:zh": "拉古纳的圣克里斯托瓦尔",
        "place": "city",
        "population": "31337",
        "ref:ine": "38023001700",
        "source": "Instituto Geográfico Nacional",
        "source:date": "2011-06",
        "source:ele": "MDT5",
        "source:file": "http://centrodedescargas.cnig.es/CentroDescargas/equipamiento/BD_Municipios-Entidades.zip",
        "source:name": "Nomenclátor Geográfico de Municipios y Entidades de Población",
        "wikidata": "Q54898",
        "wikipedia": "es:San Cristóbal de La Laguna"
      },
      "geometry": {
        "type": "Point",
        "coordinates": [
          -16.3159422,
          28.4857715
        ]
      },
      "id": "node/1036673662"
    },
    {
      "type": "Feature",
      "properties": {
        "@id": "node/1081751552",
        "admin_level": "8",
        "alt_name:ar": "ماربيا",
        "capital": "8",
        "ele": "18",
        "name": "Marbella",
        "name:ar": "مربلة",
        "name:el": "Μαρβέγια",
        "name:es": "Marbella",
        "name:lt": "Marbelja",
        "name:ru": "Марбелья",
        "name:sr": "Марбеља",
        "place": "city",
        "population": "136322",
        "postal_code": "29600-29604",
        "ref:ine": "29069000900",
        "source": "Instituto Geográfico Nacional",
        "source:date": "2011-06",
        "source:ele": "MDT5",
        "source:file": "http://centrodedescargas.cnig.es/CentroDescargas/equipamiento/BD_Municipios-Entidades.zip",
        "source:name": "Nomenclátor Geográfico de Municipios y Entidades de Población",
        "wikidata": "Q484799",
        "wikipedia": "es:Marbella"
      },
      "geometry": {
        "type": "Point",
        "coordinates": [
          -4.88562,
          36.508976
        ]
      },
      "id": "node/1081751552"
    },
    {
      "type": "Feature",
      "properties": {
        "@id": "node/1235110932",
        "admin_level": "8",
        "alt_name:es": "A Coruña",
        "alt_name:gl": "A Corunha",
        "capital": "6",
        "ele": "21",
        "maritime": "yes",
        "name": "A Coruña",
        "name:an": "A Coruña",
        "name:ar": "لا كورونيا",
        "name:ast": "A Coruña",
        "name:be": "A-Карунья",
        "name:bg": "A Коруня",
        "name:br": "A Coruña",
        "name:ca": "A Corunya",
        "name:ceb": "A Coruña",
        "name:cs": "A Coruña",
        "name:cy": "A Coruña",
        "name:de": "A Coruña",
        "name:el": "Α Κορούνια",
        "name:en": "A Coruña",
        "name:eo": "Korunjo",
        "name:es": "La Coruña",
        "name:et": "A Coruña",
        "name:eu": "Coruña",
        "name:fa": "کوروشا",
        "name:fi": "A Coruña",
        "name:fr": "La Corogne",
        "name:gl": "A Coruña",
        "name:he": "ה קורוניה",
        "name:hy": "ա Կորունյա",
        "name:ja": "ア・コルーニャ",
        "name:ka": "ა-კორუნია",
        "name:kk": "А-Корунья",
        "name:ko": "라코루냐",
        "name:lt": "A Korunja",
        "name:mr": "कोरुन्या",
        "name:oc": "A Coronha",
        "name:pl": "A Coruña",
        "name:pt": "A Corunha",
        "name:ru": "A-Корунья",
        "name:sr": "Коруња",
        "name:th": "าโกรุญญา",
        "name:uk": "A-Корунья",
        "name:uz": "A-Korunya",
        "name:yue": "拉科魯尼亞",
        "name:zh": "拉科魯尼亞",
        "name:zh-Hans": "拉科魯尼亞",
        "name:zh-Hant": "拉科鲁尼亚",
        "official_name": "A Coruña",
        "old_name:gl": "A Cruña",
        "old_name:pt": "A Crunha",
        "place": "city",
        "population": "247604",
        "population:date": "2020",
        "ref:ine": "15030000100",
        "source": "catastro",
        "source:date": "2011-06",
        "source:ele": "MDT5",
        "source:file": "http://centrodedescargas.cnig.es/CentroDescargas/equipamiento/BD_Municipios-Entidades.zip",
        "source:name": "Nomenclátor Geográfico de Municipios y Entidades de Población",
        "source:name:pt": "www.agal-gz.org/corporativo/media/docsCL/toponimia.pdf",
        "source:population": "INE - Nomenclátor 2018",
        "wikidata": "Q8757",
        "wikipedia": "gl:A Coruña"
      },
      "geometry": {
        "type": "Point",
        "coordinates": [
          -8.3958768,
          43.3712091
        ]
      },
      "id": "node/1235110932"
    },
    {
      "type": "Feature",
      "properties": {
        "@id": "node/1679058496",
        "admin_level": "8",
        "capital": "4",
        "heritage": "1",
        "heritage:operator": "whc",
        "idee:name": "Toledo",
        "name": "Toledo",
        "name:ar": "طليطلة",
        "name:be": "Таледа",
        "name:ca": "Toledo",
        "name:el": "Τολέδο",
        "name:eu": "Toledo",
        "name:fr": "Tolède",
        "name:ko": "톨레도",
        "name:la": "Toletum",
        "name:lt": "Toledas",
        "name:pt": "Toledo",
        "name:ru": "Толедо",
        "name:tr": "Tuleytula",
        "name:uk": "Толедо",
        "place": "city",
        "population": "83334",
        "wikidata": "Q5836",
        "wikipedia": "es:Toledo"
      },
      "geometry": {
        "type": "Point",
        "coordinates": [
          -4.0239568,
          39.8560679
        ]
      },
      "id": "node/1679058496"
    },
    {
      "type": "Feature",
      "properties": {
        "@id": "node/2469923579",
        "capital": "6",
        "ele": "483",
        "name": "Huesca",
        "name:an": "Uesca",
        "name:ar": "وشقة",
        "name:be": "Уэска",
        "name:bg": "Уеска",
        "name:ca": "Osca",
        "name:el": "Ουέσκα",
        "name:en": "Huesca",
        "name:es": "Huesca",
        "name:fa": "هوئسکا",
        "name:fr": "Huesca",
        "name:he": "אואסקה",
        "name:hu": "Huesca",
        "name:ja": "ウエスカ",
        "name:la": "Osca",
        "name:lt": "Hueska",
        "name:oc": "Òsca",
        "name:ru": "Уэска",
        "name:sr": "Уеска",
        "name:zh": "韦斯卡",
        "place": "city",
        "population": "52367",
        "population:date": "2019",
        "ref:ine": "22125000801",
        "wikidata": "Q11967",
        "wikipedia": "es:Huesca"
      },
      "geometry": {
        "type": "Point",
        "coordinates": [
          -0.4080901,
          42.1382539
        ]
      },
      "id": "node/2469923579"
    },
    {
      "type": "Feature",
      "properties": {
        "@id": "node/2697472985",
        "ele": "622",
        "name": "Getafe",
        "name:en": "Getafe",
        "name:hu": "Getafe",
        "name:ja": "ヘタフェ",
        "name:ru": "Хетафе",
        "name:zh": "赫塔费",
        "place": "city",
        "population": "172526",
        "population:date": "2013",
        "population:source": "Instituto Nacional de Estadística",
        "wikidata": "Q8802",
        "wikipedia": "es:Getafe"
      },
      "geometry": {
        "type": "Point",
        "coordinates": [
          -3.7302679,
          40.3081807
        ]
      },
      "id": "node/2697472985"
    },
    {
      "type": "Feature",
      "properties": {
        "@id": "node/3230345391",
        "addr:country": "ES",
        "admin_level": "6",
        "alt_name:el": "Ντονόστια",
        "capital": "6",
        "name": "Donostia / San Sebastián",
        "name:ar": "سان سيباستيان",
        "name:be": "Сан-Себасцьян",
        "name:ca": "Sant Sebastià",
        "name:el": "Σαν Σεμπαστιάν",
        "name:es": "San Sebastián",
        "name:et": "Donostia",
        "name:eu": "Donostia",
        "name:fr": "Saint-Sébastien",
        "name:hu": "Donostia-San Sebastián",
        "name:lt": "San Sebastianas",
        "name:oc": "Sant Sebastian",
        "name:ru": "Доностия-Сан-Себастьян",
        "name:zh-Hans": "圣塞瓦斯蒂安",
        "name:zh-Hant": "多若斯迪亞",
        "place": "city",
        "population": "186500",
        "population:date": "2013",
        "source:name:oc": "ieo-bdtopoc",
        "source:population": "Wikipedia",
        "website": "http://www.donostia.org/",
        "wikidata": "Q10313",
        "wikipedia": "es:San Sebastián"
      },
      "geometry": {
        "type": "Point",
        "coordinates": [
          -1.9838889,
          43.3224219
        ]
      },
      "id": "node/3230345391"
    },
    {
      "type": "Feature",
      "properties": {
        "@id": "node/3763482580",
        "admin_level": "8",
        "alt_name": "Jerez",
        "alt_name:ar": "خيريز;خيريز دي لا فرونتيرا",
        "alt_name:el": "Χερέθ",
        "alt_name:fr": "Jerez de la Frontera",
        "alt_name:lt": "Cheres",
        "alt_name:ru": "Херес",
        "capital": "7",
        "ele": "56",
        "heritage": "3",
        "heritage:operator": "Junta de Andalucía",
        "idee:name": "Jerez de la Frontera",
        "ine:municipio": "11020",
        "name": "Jerez de la Frontera",
        "name:ar": "شريش",
        "name:de": "Jerez de la Frontera",
        "name:el": "Χερέθ ντε λα Φροντέρα",
        "name:en": "Jerez",
        "name:fr": "Xérès",
        "name:lt": "Cheres de la Frontera",
        "name:ru": "Херес-де-ла-Фронтера",
        "place": "city",
        "population": "212.226",
        "source": "Ine 2014",
        "website": "http://www.jerez.es/ciudad/informacion_util/ubicacion_geografica/",
        "wikidata": "Q12303",
        "wikipedia": "es:Jerez de la Frontera"
      },
      "geometry": {
        "type": "Point",
        "coordinates": [
          -6.1377402,
          36.6816936
        ]
      },
      "id": "node/3763482580"
    }
  ]
}